{"type":"FeatureCollection","features":[{"type":"Feature","properties":{},"geometry":{"type":"LineString","coordinates":[[26.168,35.215],[26.028,35.215],[25.893,35.179],[25.837,35.133],[25.791,35.123],[25.745,35.143],[25.735,35.184],[25.756,35.326],[25.73,35.349],[25.57,35.328],[25.476,35.306],[25.297,35.339],[25.104,35.347],[25.003,35.41],[24.721,35.425],[24.627,35.41],[24.535,35.381],[24.445,35.366],[24.354,35.359],[24.313,35.364],[24.275,35.386],[24.258,35.423],[24.255,35.469],[24.179,35.46],[24.123,35.484],[24.109,35.496],[24.124,35.511],[24.198,35.537],[24.166,35.595],[24.093,35.594],[24.034,35.535],[24.013,35.529],[23.921,35.528],[23.852,35.535],[23.793,35.556],[23.771,35.634],[23.737,35.656],[23.715,35.605],[23.715,35.55],[23.673,35.514],[23.627,35.53],[23.609,35.566],[23.57,35.535],[23.548,35.416],[23.562,35.295],[23.593,35.257],[23.638,35.235],[23.704,35.233],[23.884,35.246],[23.994,35.222],[24.464,35.16],[24.583,35.115],[24.709,35.089],[24.735,35.058],[24.744,35.014],[24.745,34.951],[24.8,34.934],[25.206,34.959],[25.611,35.007],[25.83,35.025],[26.047,35.014],[26.166,35.019],[26.244,35.045],[26.256,35.095],[26.281,35.159],[26.299,35.269],[26.32,35.315],[26.286,35.31],[26.168,35.215]]}},{"type":"Feature","properties":{},"geometry":{"type":"LineString","coordinates":[[24.464,38.145],[24.36,38.163],[24.276,38.22],[24.22,38.339],[24.188,38.463],[24.211,38.504],[24.2,38.541],[24.155,38.588],[24.128,38.648],[24.099,38.671],[23.878,38.687],[23.688,38.765],[23.636,38.77],[23.525,38.813],[23.472,38.85],[23.415,38.959],[23.313,39.035],[23.258,39.031],[23.146,39.003],[22.986,38.916],[22.87,38.871],[22.881,38.848],[22.936,38.84],[23.029,38.873],[23.144,38.845],[23.252,38.801],[23.364,38.735],[23.465,38.656],[23.505,38.613],[23.553,38.582],[23.617,38.553],[23.651,38.443],[23.759,38.401],[23.886,38.401],[24.04,38.39],[24.042,38.374],[24.064,38.337],[24.103,38.317],[24.144,38.243],[24.189,38.204],[24.193,38.152],[24.212,38.118],[24.318,38.06],[24.359,38.019],[24.417,38.017],[24.446,38.005],[24.473,37.981],[24.502,37.97],[24.537,37.98],[24.579,38.02],[24.588,38.124],[24.563,38.148],[24.464,38.145]]}},{"type":"Feature","properties":{},"geometry":{"type":"LineString","coordinates":[[34.272,35.57],[34.192,35.546],[34.063,35.474],[33.608,35.354],[33.459,35.336],[33.308,35.342],[33.123,35.358],[32.942,35.39],[32.926,35.278],[32.88,35.181],[32.772,35.16],[32.713,35.171],[32.652,35.183],[32.556,35.156],[32.475,35.09],[32.391,35.05],[32.301,35.083],[32.317,34.953],[32.414,34.778],[32.449,34.729],[32.506,34.706],[32.693,34.649],[32.75,34.648],[32.867,34.661],[32.914,34.635],[32.942,34.576],[33.008,34.57],[33.024,34.6],[33.025,34.637],[33.062,34.675],[33.116,34.696],[33.176,34.698],[33.297,34.718],[33.415,34.751],[33.514,34.806],[33.699,34.97],[33.759,34.973],[33.822,34.966],[33.937,34.971],[34.05,34.988],[34.024,35.046],[34.004,35.065],[33.931,35.14],[33.908,35.202],[33.942,35.292],[34.463,35.594],[34.556,35.662],[34.411,35.629],[34.272,35.57]]}},{"type":"Feature","properties":{},"geometry":{"type":"MultiLineString","coordinates":[[[12.073,54.977],[12.071,55.0]],[[11.725,55.0],[11.74,54.972],[11.741,54.915],[11.862,54.773],[12.05,54.815],[12.069,54.909],[12.073,54.977]]]}},{"type":"Feature","properties":{},"geometry":{"type":"LineString","coordinates":[[3.241,39.757],[3.145,39.79],[3.159,39.837],[3.191,39.861],[3.199,39.89],[3.167,39.908],[3.164,39.924],[3.198,39.961],[3.159,39.971],[2.905,39.908],[2.785,39.855],[2.371,39.613],[2.37,39.572],[2.394,39.54],[2.459,39.53],[2.5,39.478],[2.576,39.531],[2.634,39.556],[2.701,39.542],[2.746,39.51],[2.77,39.41],[2.8,39.385],[2.9,39.368],[3.073,39.301],[3.155,39.333],[3.245,39.387],[3.293,39.477],[3.349,39.556],[3.415,39.627],[3.462,39.698],[3.449,39.761],[3.396,39.777],[3.342,39.787],[3.241,39.757]]}},{"type":"Feature","properties":{},"geometry":{"type":"LineString","coordinates":[[50.0,44.932],[49.995,44.937],[50.0,44.956]]}},{"type":"Feature","properties":{},"geometry":{"type":"LineString","coordinates":[[9.682,40.818],[9.632,40.882],[9.574,40.915],[9.554,40.932],[9.59,40.992],[9.621,41.005],[9.615,41.017],[9.576,41.031],[9.539,41.054],[9.5,41.106],[9.455,41.15],[9.351,41.196],[9.283,41.202],[9.228,41.257],[9.182,41.242],[9.163,41.185],[9.107,41.143],[8.998,41.11],[8.821,40.95],[8.699,40.895],[8.572,40.85],[8.468,40.834],[8.363,40.846],[8.31,40.858],[8.245,40.907],[8.224,40.913],[8.204,40.871],[8.181,40.771],[8.19,40.652],[8.23,40.606],[8.296,40.559],[8.353,40.501],[8.385,40.443],[8.409,40.352],[8.471,40.293],[8.471,40.131],[8.455,40.078],[8.409,40.038],[8.399,39.978],[8.408,39.917],[8.496,39.897],[8.548,39.839],[8.539,39.77],[8.541,39.732],[8.511,39.722],[8.471,39.748],[8.451,39.722],[8.461,39.648],[8.447,39.563],[8.419,39.523],[8.399,39.482],[8.411,39.292],[8.418,39.206],[8.486,39.11],[8.553,39.03],[8.595,38.964],[8.649,38.927],[8.719,38.927],[8.801,38.91],[8.881,38.913],[8.967,38.964],[9.023,39.043],[9.056,39.239],[9.102,39.211],[9.149,39.197],[9.207,39.214],[9.264,39.217],[9.388,39.168],[9.486,39.14],[9.562,39.166],[9.584,39.254],[9.617,39.354],[9.686,39.924],[9.707,40.017],[9.701,40.092],[9.659,40.159],[9.643,40.268],[9.754,40.4],[9.783,40.442],[9.805,40.5],[9.794,40.556],[9.682,40.818]]}},{"type":"Feature","properties":{},"geometry":{"type":"LineString","coordinates":[[8.642,42.118],[8.701,42.096],[8.703,42.043],[8.653,41.996],[8.615,41.959],[8.622,41.931],[8.674,41.922],[8.74,41.925],[8.759,41.87],[8.719,41.804],[8.718,41.761],[8.771,41.737],[8.887,41.701],[8.879,41.669],[8.83,41.628],[8.808,41.588],[8.842,41.559],[8.895,41.516],[9.003,41.477],[9.186,41.385],[9.253,41.46],[9.331,41.627],[9.374,41.679],[9.395,41.731],[9.401,41.926],[9.428,41.972],[9.551,42.13],[9.556,42.161],[9.526,42.553],[9.509,42.586],[9.473,42.616],[9.454,42.659],[9.48,42.805],[9.479,42.86],[9.461,42.945],[9.463,42.981],[9.415,43.021],[9.363,43.017],[9.331,42.944],[9.323,42.814],[9.338,42.767],[9.313,42.713],[9.288,42.695],[9.254,42.712],[9.198,42.729],[9.138,42.733],[9.088,42.705],[9.044,42.662],[8.995,42.645],[8.815,42.608],[8.713,42.55],[8.64,42.427],[8.588,42.385],[8.566,42.358],[8.592,42.345],[8.626,42.343],[8.675,42.284],[8.608,42.258],[8.566,42.219],[8.588,42.161],[8.642,42.118]]}},{"type":"Feature","properties":{},"geometry":{"type":"LineString","coordinates":[[15.341,38.217],[15.28,38.23],[15.224,38.211],[15.176,38.168],[15.119,38.153],[14.982,38.168],[14.846,38.172],[14.79,38.167],[14.737,38.151],[14.637,38.085],[14.506,38.046],[14.416,38.043],[14.288,38.017],[14.05,38.041],[13.937,38.024],[13.789,37.981],[13.735,37.984],[13.682,38.001],[13.491,38.103],[13.433,38.11],[13.383,38.127],[13.352,38.181],[13.291,38.191],[13.16,38.19],[13.057,38.131],[13.049,38.084],[12.955,38.041],[12.903,38.035],[12.851,38.064],[12.734,38.183],[12.702,38.142],[12.664,38.108],[12.602,38.085],[12.548,38.053],[12.487,37.939],[12.436,37.82],[12.454,37.774],[12.527,37.67],[12.64,37.594],[12.699,37.572],[12.757,37.567],[12.871,37.575],[12.924,37.571],[13.04,37.507],[13.17,37.479],[13.221,37.452],[13.265,37.41],[13.361,37.349],[13.587,37.254],[13.801,37.136],[13.905,37.101],[14.024,37.107],[14.143,37.104],[14.259,37.046],[14.367,36.973],[14.502,36.799],[14.555,36.777],[14.614,36.767],[14.776,36.71],[14.89,36.724],[15.002,36.694],[15.113,36.688],[15.116,36.736],[15.104,36.785],[15.116,36.839],[15.142,36.892],[15.185,36.935],[15.295,37.013],[15.296,37.055],[15.289,37.097],[15.236,37.139],[15.174,37.209],[15.23,37.244],[15.194,37.283],[15.146,37.308],[15.117,37.335],[15.106,37.375],[15.1,37.459],[15.131,37.532],[15.165,37.59],[15.19,37.651],[15.207,37.721],[15.234,37.785],[15.476,38.063],[15.509,38.107],[15.577,38.22],[15.635,38.268],[15.568,38.296],[15.499,38.291],[15.341,38.217]]}},{"type":"Feature","properties":{},"geometry":{"type":"MultiLineString","coordinates":[[[-1.409,55.0],[-1.292,54.774],[-1.232,54.704],[-1.154,54.654],[-0.759,54.541],[-0.671,54.504],[-0.518,54.395],[-0.37,54.279],[-0.233,54.19],[-0.084,54.118],[-0.156,54.081],[-0.206,54.022],[-0.169,53.942],[-0.108,53.865],[0.011,53.743],[0.115,53.609],[0.077,53.629],[0.036,53.641],[-0.019,53.637],[-0.074,53.644],[-0.174,53.685],[-0.27,53.737],[-0.461,53.716],[-0.568,53.725],[-0.66,53.724],[-0.485,53.694],[-0.294,53.692],[0.128,53.468],[0.271,53.335],[0.356,53.16],[0.298,53.081],[0.208,53.03],[0.124,52.972],[0.046,52.906],[0.28,52.809],[0.33,52.812],[0.382,52.825],[0.432,52.858],[0.516,52.938],[0.559,52.967],[0.704,52.977],[0.827,52.971],[0.949,52.953],[1.056,52.959],[1.271,52.925],[1.382,52.894],[1.657,52.754],[1.716,52.677],[1.743,52.579],[1.747,52.469],[1.7,52.369],[1.647,52.279],[1.615,52.162],[1.591,52.12],[1.559,52.087],[1.413,51.995],[1.317,51.957],[1.276,51.974],[1.232,51.971],[1.228,51.949],[1.274,51.902],[1.274,51.845],[1.188,51.803],[1.101,51.785],[0.955,51.808],[0.752,51.73],[0.898,51.689],[0.927,51.647],[0.891,51.571],[0.799,51.538],[0.698,51.523],[0.593,51.519],[0.507,51.501],[0.425,51.466],[0.528,51.484],[0.6,51.468],[0.646,51.405],[0.687,51.387],[0.889,51.36],[1.015,51.36],[1.257,51.375],[1.373,51.375],[1.415,51.363],[1.416,51.311],[1.398,51.182],[1.366,51.155],[1.044,51.047],[0.979,50.972],[0.96,50.926],[0.772,50.934],[0.684,50.886],[0.532,50.853],[0.415,50.819],[0.3,50.776],[0.205,50.763],[-0.204,50.814],[-0.451,50.81],[-0.785,50.765],[-0.871,50.773],[-1.001,50.816],[-1.133,50.845],[-1.285,50.857],[-1.416,50.897],[-1.334,50.821],[-1.517,50.747],[-1.601,50.733],[-1.688,50.735],[-1.866,50.715],[-2.031,50.725],[-2.006,50.673],[-1.962,50.628],[-1.998,50.608],[-2.036,50.603],[-2.35,50.637],[-2.395,50.631],[-2.433,50.599],[-2.548,50.616],[-2.659,50.67],[-2.777,50.706],[-2.901,50.722],[-2.999,50.717],[-3.405,50.632],[-3.485,50.548],[-3.526,50.428],[-3.584,50.322],[-3.68,50.24],[-3.793,50.229],[-3.9,50.286],[-4.103,50.349],[-4.173,50.391],[-4.195,50.393],[-4.217,50.378],[-4.297,50.359],[-4.379,50.358],[-4.507,50.341],[-4.728,50.29],[-4.817,50.256],[-5.01,50.161],[-5.049,50.134],[-5.119,50.038],[-5.225,50.021],[-5.323,50.083],[-5.434,50.104],[-5.551,50.083],[-5.622,50.051],[-5.655,50.077],[-5.656,50.132],[-5.571,50.197],[-5.342,50.246],[-5.142,50.374],[-5.043,50.452],[-5.004,50.495],[-4.956,50.523],[-4.894,50.534],[-4.861,50.582],[-4.583,50.776],[-4.56,50.821],[-4.546,50.901],[-4.523,50.977],[-4.296,51.027],[-4.188,51.189],[-4.158,51.201],[-3.842,51.231],[-3.608,51.229],[-3.375,51.197],[-3.256,51.194],[-3.136,51.205],[-3.042,51.249],[-2.881,51.406],[-2.791,51.475],[-2.687,51.537],[-2.59,51.609],[-2.433,51.741],[-2.539,51.695],[-2.668,51.623],[-2.742,51.581],[-2.979,51.539],[-3.08,51.496],[-3.259,51.398],[-3.293,51.39],[-3.562,51.414],[-3.763,51.54],[-3.891,51.592],[-3.944,51.598],[-3.998,51.582],[-4.115,51.566],[-4.235,51.569],[-4.174,51.627],[-4.091,51.66],[-4.276,51.683],[-4.328,51.7],[-4.386,51.741],[-4.531,51.748],[-4.601,51.738],[-4.718,51.684],[-4.902,51.626],[-5.125,51.706],[-5.168,51.741],[-5.167,51.808],[-5.201,51.861],[-5.262,51.88],[-5.183,51.95],[-5.088,51.996],[-4.879,52.042],[-4.561,52.151],[-4.383,52.197],[-4.218,52.277],[-4.149,52.326],[-4.1,52.393],[-4.051,52.475],[-3.98,52.542],[-4.048,52.558],[-4.079,52.608],[-4.071,52.659],[-4.039,52.704],[-4.067,52.761],[-4.118,52.82],[-4.115,52.866],[-4.101,52.915],[-4.229,52.913],[-4.356,52.897],[-4.472,52.862],[-4.584,52.815],[-4.683,52.806],[-4.681,52.844],[-4.638,52.891],[-4.526,52.958],[-4.405,53.014],[-4.362,53.056],[-4.328,53.105],[-4.269,53.145],[-4.111,53.219],[-3.809,53.303],[-3.764,53.308],[-3.646,53.298],[-3.53,53.311],[-3.428,53.341],[-3.326,53.347],[-3.098,53.26],[-3.166,53.395],[-3.065,53.427],[-2.919,53.305],[-2.864,53.293],[-2.75,53.31],[-2.794,53.331],[-2.845,53.332],[-2.913,53.35],[-2.97,53.389],[-3.065,53.513],[-3.059,53.586],[-2.996,53.663],[-2.925,53.733],[-2.984,53.747],[-3.032,53.774],[-3.045,53.844],[-3.027,53.906],[-2.9,53.961],[-2.862,54.044],[-2.846,54.135],[-2.868,54.177],[-2.994,54.171],[-3.055,54.153],[-3.11,54.126],[-3.166,54.128],[-3.322,54.229],[-3.41,54.306],[-3.569,54.468],[-3.592,54.564],[-3.465,54.773],[-3.268,54.907],[-3.036,54.953],[-3.081,54.962],[-3.434,54.964],[-3.55,54.947],[-3.658,54.893],[-3.719,54.876],[-3.783,54.87],[-3.842,54.843],[-3.899,54.805],[-3.958,54.781],[-4.076,54.787],[-4.133,54.779],[-4.174,54.801],[-4.208,54.837],[-4.253,54.847],[-4.304,54.836],[-4.41,54.787],[-4.517,54.758],[-4.648,54.789],[-4.818,54.846],[-4.852,54.825],[-4.89,54.772],[-4.911,54.689],[-5.032,54.761],[-5.135,54.858],[-5.17,54.918],[-5.173,54.986],[-5.143,55.0]],[[-5.086,55.0],[-5.056,54.988],[-5.049,55.0]]]}},{"type":"Feature","properties":{},"geometry":{"type":"MultiLineString","coordinates":[[[-9.542,51.664],[-9.525,51.681],[-9.58,51.689],[-9.899,51.647],[-10.01,51.611],[-10.121,51.601],[-10.069,51.656],[-9.926,51.731],[-9.85,51.766],[-9.803,51.78],[-9.75,51.824],[-9.599,51.874],[-10.084,51.771],[-10.212,51.784],[-10.242,51.812],[-10.341,51.799],[-10.379,51.869],[-10.232,51.975],[-10.146,52.02],[-10.044,52.045],[-9.946,52.08],[-9.91,52.123],[-9.956,52.137],[-10.25,52.126],[-10.39,52.135],[-10.383,52.169],[-10.357,52.207],[-10.211,52.272],[-10.132,52.282],[-10.062,52.276],[-9.993,52.259],[-9.937,52.238],[-9.772,52.25],[-9.841,52.291],[-9.853,52.375],[-9.906,52.404],[-9.838,52.443],[-9.761,52.466],[-9.632,52.547],[-9.586,52.559],[-9.331,52.579],[-9.056,52.621],[-8.783,52.68],[-8.923,52.712],[-8.99,52.755],[-9.098,52.668],[-9.175,52.635],[-9.394,52.617],[-9.463,52.627],[-9.561,52.654],[-9.591,52.644],[-9.62,52.623],[-9.764,52.58],[-9.917,52.57],[-9.74,52.648],[-9.515,52.781],[-9.465,52.823],[-9.394,52.896],[-9.416,52.929],[-9.462,52.947],[-9.299,53.098],[-9.242,53.125],[-9.138,53.129],[-9.061,53.153],[-9.027,53.153],[-8.997,53.162],[-8.93,53.207],[-9.034,53.236],[-9.14,53.25],[-9.471,53.235],[-9.514,53.238],[-9.555,53.252],[-9.582,53.272],[-9.602,53.323],[-9.626,53.334],[-9.701,53.334],[-9.774,53.319],[-9.825,53.32],[-9.876,53.343],[-9.795,53.395],[-9.899,53.407],[-10.004,53.397],[-10.091,53.413],[-10.094,53.446],[-10.054,53.478],[-10.106,53.509],[-10.117,53.549],[-10.062,53.568],[-10.001,53.561],[-9.878,53.59],[-9.721,53.604],[-9.856,53.633],[-9.91,53.658],[-9.912,53.695],[-9.902,53.727],[-9.745,53.781],[-9.578,53.805],[-9.591,53.841],[-9.579,53.88],[-9.748,53.891],[-9.914,53.864],[-9.896,53.938],[-9.856,54.004],[-9.848,54.048],[-9.856,54.095],[-9.934,54.075],[-9.944,54.142],[-9.977,54.187],[-10.093,54.156],[-10.09,54.216],[-10.056,54.258],[-9.996,54.276],[-9.936,54.268],[-9.825,54.269],[-9.717,54.3],[-9.562,54.309],[-9.316,54.299],[-9.146,54.21],[-9.102,54.226],[-9.034,54.282],[-9.002,54.288],[-8.747,54.263],[-8.588,54.231],[-8.546,54.241],[-8.568,54.304],[-8.623,54.347],[-8.554,54.404],[-8.471,54.442],[-8.415,54.461],[-8.287,54.485],[-8.23,54.507],[-8.193,54.58],[-8.133,54.641],[-8.457,54.609],[-8.764,54.681],[-8.715,54.732],[-8.65,54.761],[-8.538,54.783],[-8.528,54.809],[-8.471,54.832],[-8.377,54.889],[-8.412,54.965],[-8.4,55.0]],[[-7.622,55.0],[-7.659,54.971],[-7.584,54.994],[-7.572,55.0]],[[-5.955,55.0],[-5.869,54.916],[-5.717,54.817],[-5.711,54.757],[-5.765,54.725],[-5.879,54.684],[-5.879,54.641],[-5.803,54.663],[-5.739,54.673],[-5.583,54.663],[-5.528,54.62],[-5.49,54.554],[-5.47,54.5],[-5.484,54.442],[-5.526,54.46],[-5.569,54.513],[-5.616,54.537],[-5.671,54.55],[-5.646,54.478],[-5.656,54.382],[-5.632,54.373],[-5.558,54.371],[-5.607,54.273],[-5.708,54.246],[-5.826,54.236],[-5.855,54.201],[-5.876,54.156],[-5.938,54.089],[-6.019,54.051],[-6.12,54.059],[-6.218,54.089],[-6.176,54.054],[-6.157,54.017],[-6.231,54.004],[-6.308,54.011],[-6.345,53.987],[-6.348,53.941],[-6.322,53.882],[-6.27,53.84],[-6.229,53.746],[-6.195,53.641],[-6.142,53.578],[-6.131,53.499],[-6.139,53.46],[-6.129,53.391],[-6.152,53.366],[-6.135,53.301],[-6.072,53.166],[-6.045,53.091],[-6.027,52.927],[-6.071,52.866],[-6.131,52.807],[-6.169,52.738],[-6.199,52.663],[-6.217,52.543],[-6.345,52.402],[-6.4,52.367],[-6.463,52.345],[-6.325,52.247],[-6.438,52.203],[-6.561,52.189],[-6.697,52.214],[-6.782,52.21],[-6.86,52.179],[-6.89,52.159],[-6.915,52.169],[-6.966,52.25],[-7.003,52.166],[-7.082,52.139],[-7.216,52.145],[-7.441,52.123],[-7.527,52.099],[-7.563,52.062],[-7.59,52.019],[-7.625,51.993],[-7.665,51.98],[-7.838,51.948],[-7.872,51.935],[-7.952,51.866],[-8.058,51.826],[-8.145,51.814],[-8.222,51.854],[-8.254,51.878],[-8.29,51.891],[-8.409,51.889],[-8.372,51.876],[-8.347,51.848],[-8.336,51.793],[-8.349,51.739],[-8.408,51.712],[-8.478,51.707],[-8.588,51.651],[-8.734,51.636],[-8.813,51.585],[-9.296,51.498],[-9.324,51.497],[-9.391,51.519],[-9.463,51.529],[-9.535,51.522],[-9.737,51.474],[-9.835,51.483],[-9.71,51.604],[-9.542,51.664]]]}},{"type":"Feature","properties":{},"geometry":{"type":"LineString","coordinates":[[14.18,36.06],[14.194,36.042],[14.254,36.012],[14.313,36.028],[14.321,36.036],[14.304,36.062],[14.263,36.076],[14.18,36.06]]}},{"type":"Feature","properties":{},"geometry":{"type":"LineString","coordinates":[[13.871,40.762],[13.854,40.724],[13.868,40.709],[13.894,40.697],[13.938,40.706],[13.961,40.718],[13.962,40.739],[13.871,40.762]]}},{"type":"Feature","properties":{},"geometry":{"type":"LineString","coordinates":[[11.948,36.843],[11.936,36.829],[11.941,36.78],[12.003,36.746],[12.051,36.757],[12.048,36.776],[12.024,36.821],[11.948,36.843]]}},{"type":"Feature","properties":{},"geometry":{"type":"LineString","coordinates":[[6.193,53.477],[6.333,53.511],[6.291,53.515],[6.168,53.494],[6.159,53.484],[6.193,53.477]]}},{"type":"Feature","properties":{},"geometry":{"type":"LineString","coordinates":[[5.708,53.473],[5.654,53.467],[5.665,53.455],[5.732,53.443],[5.929,53.459],[5.928,53.465],[5.876,53.475],[5.708,53.473]]}},{"type":"Feature","properties":{},"geometry":{"type":"LineString","coordinates":[[5.027,53.31],[4.908,53.246],[4.924,53.235],[5.109,53.308],[5.027,53.31]]}},{"type":"Feature","properties":{},"geometry":{"type":"LineString","coordinates":[[5.415,53.431],[5.19,53.392],[5.233,53.378],[5.326,53.386],[5.583,53.438],[5.557,53.444],[5.415,53.431]]}},{"type":"Feature","properties":{},"geometry":{"type":"LineString","coordinates":[[-25.164,37.019],[-25.198,36.997],[-25.16,36.943],[-25.088,36.949],[-25.032,36.942],[-25.027,36.96],[-25.044,37.0],[-25.083,37.024],[-25.164,37.019]]}},{"type":"Feature","properties":{},"geometry":{"type":"LineString","coordinates":[[16.978,42.928],[17.089,42.915],[17.188,42.917],[17.17,42.933],[17.094,42.964],[16.971,42.981],[16.836,42.969],[16.651,42.997],[16.666,42.96],[16.696,42.934],[16.739,42.913],[16.851,42.896],[16.978,42.928]]}},{"type":"Feature","properties":{},"geometry":{"type":"LineString","coordinates":[[17.124,43.115],[17.194,43.126],[17.061,43.144],[16.697,43.175],[16.656,43.214],[16.521,43.229],[16.376,43.214],[16.406,43.197],[16.55,43.144],[16.679,43.123],[17.124,43.115]]}},{"type":"Feature","properties":{},"geometry":{"type":"LineString","coordinates":[[16.627,43.268],[16.49,43.286],[16.423,43.317],[16.428,43.343],[16.449,43.387],[16.602,43.382],[16.834,43.351],[16.891,43.315],[16.874,43.298],[16.785,43.271],[16.627,43.268]]}},{"type":"Feature","properties":{},"geometry":{"type":"LineString","coordinates":[[-2.646,49.468],[-2.639,49.451],[-2.547,49.429],[-2.512,49.495],[-2.521,49.506],[-2.542,49.507],[-2.646,49.468]]}},{"type":"Feature","properties":{},"geometry":{"type":"LineString","coordinates":[[-2.221,49.266],[-2.236,49.176],[-2.166,49.187],[-2.091,49.187],[-2.054,49.17],[-2.01,49.181],[-2.019,49.231],[-2.082,49.255],[-2.221,49.266]]}},{"type":"Feature","properties":{},"geometry":{"type":"LineString","coordinates":[[47.987,45.554],[47.947,45.647],[47.918,45.618],[47.92,45.562],[47.968,45.47],[47.983,45.488],[47.987,45.554]]}},{"type":"Feature","properties":{},"geometry":{"type":"LineString","coordinates":[[42.57,15.407],[42.549,15.32],[42.559,15.281],[42.59,15.303],[42.61,15.332],[42.625,15.368],[42.602,15.433],[42.57,15.407]]}},{"type":"Feature","properties":{},"geometry":{"type":"LineString","coordinates":[[40.048,16.104],[40.039,16.081],[39.996,16.043],[40.012,16.023],[40.11,15.986],[40.076,16.082],[40.048,16.104]]}},{"type":"Feature","properties":{},"geometry":{"type":"LineString","coordinates":[[36.924,25.426],[36.748,25.559],[36.589,25.62],[36.554,25.645],[36.534,25.689],[36.504,25.645],[36.53,25.602],[36.722,25.534],[36.764,25.501],[36.805,25.451],[36.875,25.383],[36.902,25.383],[36.955,25.415],[36.924,25.426]]}},{"type":"Feature","properties":{},"geometry":{"type":"LineString","coordinates":[[36.586,25.699],[36.596,25.713],[36.596,25.735],[36.58,25.795],[36.583,25.856],[36.546,25.812],[36.544,25.734],[36.586,25.699]]}},{"type":"Feature","properties":{},"geometry":{"type":"LineString","coordinates":[[42.06,16.804],[42.026,16.758],[42.033,16.742],[42.065,16.71],[41.988,16.716],[41.947,16.749],[41.962,16.779],[41.954,16.806],[41.948,16.936],[41.917,16.994],[41.86,17.003],[41.885,16.947],[41.858,16.893],[41.816,16.86],[41.776,16.847],[41.802,16.779],[41.897,16.684],[41.964,16.653],[42.072,16.671],[42.102,16.644],[42.108,16.618],[42.128,16.595],[42.158,16.571],[42.167,16.596],[42.17,16.709],[42.06,16.804]]}},{"type":"Feature","properties":{},"geometry":{"type":"LineString","coordinates":[[40.25,15.703],[40.234,15.666],[40.211,15.648],[40.183,15.643],[40.141,15.696],[40.132,15.795],[40.097,15.838],[40.043,15.875],[39.957,15.889],[40.0,15.828],[39.979,15.807],[39.945,15.789],[39.94,15.745],[40.016,15.733],[40.071,15.677],[40.063,15.666],[40.024,15.656],[39.947,15.696],[39.975,15.612],[40.095,15.591],[40.196,15.598],[40.305,15.577],[40.399,15.58],[40.408,15.629],[40.25,15.703]]}},{"type":"Feature","properties":{},"geometry":{"type":"LineString","coordinates":[[42.69,13.674],[42.756,13.704],[42.794,13.766],[42.781,13.769],[42.735,13.753],[42.69,13.674]]}},{"type":"Feature","properties":{},"geometry":{"type":"LineString","coordinates":[[42.694,14.008],[42.756,13.955],[42.774,13.95],[42.787,13.971],[42.798,14.012],[42.762,14.067],[42.694,14.008]]}},{"type":"Feature","properties":{},"geometry":{"type":"LineString","coordinates":[[48.348,29.783],[48.228,29.936],[48.185,29.979],[48.159,29.96],[48.139,29.897],[48.12,29.886],[48.113,29.87],[48.115,29.849],[48.081,29.799],[48.143,29.665],[48.18,29.611],[48.218,29.602],[48.275,29.624],[48.34,29.695],[48.347,29.72],[48.348,29.783]]}},{"type":"Feature","properties":{},"geometry":{"type":"LineString","coordinates":[[31.585,46.303],[31.509,46.373],[31.529,46.307],[31.564,46.258],[31.7,46.214],[32.009,46.168],[32.15,46.155],[32.012,46.204],[31.638,46.273],[31.585,46.303]]}},{"type":"Feature","properties":{},"geometry":{"type":"LineString","coordinates":[[27.914,36.345],[27.815,36.277],[27.774,36.214],[27.716,36.172],[27.719,36.141],[27.757,36.069],[27.716,35.957],[27.746,35.911],[27.771,35.908],[27.843,35.929],[27.966,36.048],[28.088,36.065],[28.068,36.13],[28.144,36.21],[28.23,36.37],[28.232,36.434],[28.171,36.426],[27.914,36.345]]}},{"type":"Feature","properties":{},"geometry":{"type":"LineString","coordinates":[[27.157,35.629],[27.207,35.714],[27.223,35.82],[27.158,35.789],[27.156,35.726],[27.071,35.598],[27.116,35.511],[27.099,35.456],[27.138,35.409],[27.176,35.465],[27.234,35.479],[27.209,35.559],[27.157,35.629]]}},{"type":"Feature","properties":{},"geometry":{"type":"LineString","coordinates":[[27.863,36.641],[27.837,36.635],[27.786,36.608],[27.788,36.584],[27.838,36.538],[27.86,36.554],[27.869,36.583],[27.87,36.623],[27.863,36.641]]}},{"type":"Feature","properties":{},"geometry":{"type":"LineString","coordinates":[[27.04,37.002],[27.016,37.01],[26.967,37.052],[26.889,37.087],[26.938,37.025],[26.92,36.945],[27.02,36.959],[27.035,36.976],[27.04,37.002]]}},{"type":"Feature","properties":{},"geometry":{"type":"LineString","coordinates":[[27.061,36.84],[26.956,36.774],[26.918,36.726],[26.95,36.727],[27.034,36.771],[27.151,36.778],[27.193,36.809],[27.352,36.869],[27.266,36.905],[27.215,36.899],[27.061,36.84]]}},{"type":"Feature","properties":{},"geometry":{"type":"LineString","coordinates":[[25.362,37.07],[25.396,36.984],[25.457,36.93],[25.546,36.968],[25.584,37.039],[25.588,37.153],[25.564,37.185],[25.525,37.196],[25.362,37.07]]}},{"type":"Feature","properties":{},"geometry":{"type":"LineString","coordinates":[[25.275,37.138],[25.235,37.149],[25.146,37.107],[25.105,37.035],[25.133,37.0],[25.199,36.991],[25.279,37.068],[25.271,37.084],[25.275,37.138]]}},{"type":"Feature","properties":{},"geometry":{"type":"LineString","coordinates":[[25.415,36.442],[25.413,36.405],[25.397,36.379],[25.371,36.359],[25.436,36.34],[25.482,36.393],[25.467,36.435],[25.409,36.474],[25.397,36.465],[25.415,36.442]]}},{"type":"Feature","properties":{},"geometry":{"type":"LineString","coordinates":[[25.364,36.658],[25.382,36.674],[25.407,36.717],[25.296,36.789],[25.26,36.758],[25.289,36.722],[25.364,36.658]]}},{"type":"Feature","properties":{},"geometry":{"type":"LineString","coordinates":[[26.982,37.782],[26.947,37.778],[26.824,37.811],[26.743,37.81],[26.639,37.781],[26.581,37.724],[26.613,37.71],[26.721,37.705],[26.788,37.657],[26.845,37.645],[26.978,37.7],[27.055,37.709],[27.04,37.77],[26.982,37.782]]}},{"type":"Feature","properties":{},"geometry":{"type":"LineString","coordinates":[[26.212,37.638],[26.086,37.635],[25.997,37.566],[25.982,37.526],[26.029,37.529],[26.205,37.569],[26.297,37.62],[26.351,37.674],[26.326,37.673],[26.212,37.638]]}},{"type":"Feature","properties":{},"geometry":{"type":"LineString","coordinates":[[25.942,36.887],[25.852,36.848],[25.834,36.825],[25.797,36.807],[25.743,36.79],[25.771,36.782],[25.859,36.79],[25.985,36.88],[26.064,36.903],[26.001,36.937],[25.942,36.887]]}},{"type":"Feature","properties":{},"geometry":{"type":"LineString","coordinates":[[26.337,36.581],[26.27,36.595],[26.27,36.547],[26.331,36.511],[26.382,36.562],[26.461,36.585],[26.421,36.624],[26.37,36.639],[26.384,36.608],[26.337,36.581]]}},{"type":"Feature","properties":{},"geometry":{"type":"LineString","coordinates":[[24.277,37.601],[24.289,37.528],[24.356,37.577],[24.401,37.649],[24.379,37.683],[24.32,37.678],[24.277,37.601]]}},{"type":"Feature","properties":{},"geometry":{"type":"LineString","coordinates":[[24.398,37.383],[24.379,37.314],[24.436,37.344],[24.481,37.408],[24.449,37.45],[24.431,37.475],[24.395,37.45],[24.37,37.42],[24.398,37.383]]}},{"type":"Feature","properties":{},"geometry":{"type":"LineString","coordinates":[[24.425,36.713],[24.357,36.744],[24.345,36.723],[24.326,36.656],[24.531,36.684],[24.538,36.705],[24.536,36.764],[24.46,36.747],[24.45,36.729],[24.425,36.713]]}},{"type":"Feature","properties":{},"geometry":{"type":"LineString","coordinates":[[24.943,37.494],[24.907,37.509],[24.895,37.446],[24.896,37.407],[24.912,37.391],[24.938,37.39],[24.943,37.494]]}},{"type":"Feature","properties":{},"geometry":{"type":"LineString","coordinates":[[24.948,37.858],[24.956,37.905],[24.855,37.914],[24.79,37.99],[24.763,37.987],[24.7,37.962],[24.714,37.899],[24.767,37.871],[24.799,37.824],[24.884,37.771],[24.962,37.692],[24.992,37.76],[24.98,37.797],[24.948,37.858]]}},{"type":"Feature","properties":{},"geometry":{"type":"LineString","coordinates":[[25.156,37.545],[25.219,37.535],[25.256,37.6],[25.225,37.631],[25.092,37.648],[25.039,37.681],[24.996,37.677],[25.016,37.646],[25.052,37.614],[25.156,37.545]]}},{"type":"Feature","properties":{},"geometry":{"type":"LineString","coordinates":[[24.676,36.959],[24.703,36.917],[24.721,36.921],[24.763,36.949],[24.716,37.024],[24.681,37.022],[24.671,36.999],[24.676,36.959]]}},{"type":"Feature","properties":{},"geometry":{"type":"LineString","coordinates":[[26.012,38.602],[25.846,38.574],[25.851,38.508],[25.96,38.416],[25.991,38.354],[25.953,38.303],[25.874,38.27],[25.892,38.243],[25.999,38.162],[26.094,38.218],[26.103,38.234],[26.111,38.28],[26.157,38.303],[26.15,38.468],[26.141,38.486],[26.16,38.541],[26.11,38.545],[26.012,38.602]]}},{"type":"Feature","properties":{},"geometry":{"type":"LineString","coordinates":[[26.531,39.172],[26.393,39.27],[26.41,39.329],[26.348,39.383],[26.165,39.374],[26.165,39.332],[26.088,39.304],[26.026,39.285],[25.91,39.288],[25.844,39.2],[25.855,39.179],[25.906,39.139],[26.072,39.096],[26.176,39.194],[26.273,39.198],[26.245,39.164],[26.108,39.081],[26.161,39.026],[26.39,38.974],[26.469,38.973],[26.547,38.994],[26.503,39.031],[26.489,39.075],[26.532,39.064],[26.584,39.031],[26.596,39.049],[26.578,39.11],[26.531,39.172]]}},{"type":"Feature","properties":{},"geometry":{"type":"LineString","coordinates":[[23.735,39.081],[23.78,39.114],[23.594,39.209],[23.666,39.095],[23.735,39.081]]}},{"type":"Feature","properties":{},"geometry":{"type":"LineString","coordinates":[[23.971,39.268],[23.888,39.226],[23.841,39.147],[23.888,39.158],[23.94,39.201],[23.971,39.268]]}},{"type":"Feature","properties":{},"geometry":{"type":"LineString","coordinates":[[24.581,38.879],[24.564,38.942],[24.486,38.98],[24.473,38.962],[24.461,38.889],[24.566,38.832],[24.565,38.819],[24.541,38.789],[24.569,38.785],[24.675,38.809],[24.581,38.879]]}},{"type":"Feature","properties":{},"geometry":{"type":"LineString","coordinates":[[25.569,40.516],[25.448,40.483],[25.573,40.4],[25.686,40.427],[25.664,40.464],[25.624,40.492],[25.569,40.516]]}},{"type":"Feature","properties":{},"geometry":{"type":"LineString","coordinates":[[25.374,40.016],[25.348,39.985],[25.286,39.956],[25.234,40.005],[25.058,40.0],[25.052,39.976],[25.065,39.91],[25.062,39.852],[25.126,39.826],[25.185,39.83],[25.203,39.849],[25.224,39.893],[25.249,39.894],[25.252,39.854],[25.263,39.823],[25.299,39.806],[25.357,39.808],[25.372,39.891],[25.4,39.95],[25.438,39.983],[25.449,40.035],[25.374,40.016]]}},{"type":"Feature","properties":{},"geometry":{"type":"LineString","coordinates":[[24.623,40.793],[24.586,40.769],[24.517,40.687],[24.516,40.647],[24.646,40.579],[24.774,40.615],[24.769,40.659],[24.786,40.704],[24.774,40.73],[24.719,40.786],[24.623,40.793]]}},{"type":"Feature","properties":{},"geometry":{"type":"LineString","coordinates":[[25.741,40.196],[25.669,40.136],[25.74,40.105],[25.97,40.136],[25.977,40.178],[25.918,40.238],[25.875,40.234],[25.741,40.196]]}},{"type":"Feature","properties":{},"geometry":{"type":"LineString","coordinates":[[-16.067,11.197],[-16.087,11.199],[-16.105,11.191],[-16.144,11.167],[-16.176,11.131],[-16.195,11.13],[-16.236,11.113],[-16.231,11.094],[-16.195,11.045],[-16.115,11.059],[-16.072,11.084],[-16.053,11.118],[-16.067,11.197]]}},{"type":"Feature","properties":{},"geometry":{"type":"LineString","coordinates":[[-16.42,19.802],[-16.477,19.71],[-16.466,19.646],[-16.438,19.609],[-16.373,19.706],[-16.344,19.866],[-16.393,19.849],[-16.42,19.802]]}},{"type":"Feature","properties":{},"geometry":{"type":"LineString","coordinates":[[-16.693,32.758],[-16.774,32.774],[-16.929,32.841],[-17.054,32.816],[-17.191,32.869],[-17.241,32.807],[-17.226,32.767],[-17.171,32.722],[-17.018,32.663],[-16.837,32.648],[-16.765,32.71],[-16.693,32.758]]}},{"type":"Feature","properties":{},"geometry":{"type":"LineString","coordinates":[[-15.963,11.095],[-15.951,11.087],[-15.964,11.059],[-15.905,11.055],[-15.896,11.082],[-15.905,11.148],[-15.909,11.161],[-15.938,11.193],[-15.946,11.18],[-15.963,11.095]]}},{"type":"Feature","properties":{},"geometry":{"type":"LineString","coordinates":[[-16.334,28.38],[-16.119,28.528],[-16.124,28.576],[-16.319,28.558],[-16.517,28.413],[-16.557,28.4],[-16.752,28.37],[-16.843,28.376],[-16.905,28.34],[-16.866,28.293],[-16.795,28.149],[-16.658,28.007],[-16.543,28.032],[-16.496,28.062],[-16.418,28.151],[-16.334,28.38]]}},{"type":"Feature","properties":{},"geometry":{"type":"LineString","coordinates":[[-13.535,29.144],[-13.65,29.119],[-13.788,29.056],[-13.824,29.013],[-13.86,28.869],[-13.784,28.845],[-13.716,28.911],[-13.555,28.96],[-13.478,29.007],[-13.454,29.151],[-13.423,29.198],[-13.464,29.237],[-13.501,29.211],[-13.535,29.144]]}},{"type":"Feature","properties":{},"geometry":{"type":"LineString","coordinates":[[-14.028,28.617],[-14.153,28.407],[-14.232,28.216],[-14.356,28.13],[-14.492,28.101],[-14.469,28.082],[-14.333,28.056],[-14.197,28.169],[-13.928,28.253],[-13.863,28.409],[-13.828,28.585],[-13.827,28.691],[-13.857,28.738],[-13.886,28.745],[-13.954,28.741],[-14.003,28.707],[-14.028,28.617]]}},{"type":"Feature","properties":{},"geometry":{"type":"LineString","coordinates":[[-12.615,7.637],[-12.854,7.622],[-12.952,7.571],[-12.607,7.475],[-12.541,7.41],[-12.526,7.436],[-12.501,7.535],[-12.512,7.582],[-12.544,7.607],[-12.615,7.637]]}},{"type":"Feature","properties":{},"geometry":{"type":"LineString","coordinates":[[-15.401,28.147],[-15.415,28.159],[-15.433,28.154],[-15.453,28.137],[-15.683,28.154],[-15.721,28.064],[-15.809,27.994],[-15.807,27.888],[-15.71,27.784],[-15.656,27.758],[-15.559,27.747],[-15.437,27.811],[-15.389,27.875],[-15.383,27.993],[-15.407,28.071],[-15.401,28.147]]}},{"type":"Feature","properties":{},"geometry":{"type":"LineString","coordinates":[[-15.717,11.302],[-15.755,11.269],[-15.78,11.195],[-15.767,11.182],[-15.725,11.175],[-15.725,11.215],[-15.687,11.234],[-15.667,11.258],[-15.658,11.286],[-15.672,11.296],[-15.717,11.302]]}},{"type":"Feature","properties":{},"geometry":{"type":"LineString","coordinates":[[-15.537,11.618],[-15.62,11.533],[-15.563,11.514],[-15.553,11.537],[-15.526,11.554],[-15.484,11.568],[-15.482,11.632],[-15.537,11.618]]}},{"type":"Feature","properties":{},"geometry":{"type":"LineString","coordinates":[[-24.98,17.095],[-25.035,17.176],[-25.113,17.194],[-25.337,17.091],[-25.342,17.068],[-25.322,17.015],[-25.308,16.936],[-25.267,16.926],[-25.17,16.946],[-25.017,17.049],[-24.98,17.095]]}},{"type":"Feature","properties":{},"geometry":{"type":"LineString","coordinates":[[-24.991,16.913],[-25.07,16.871],[-25.093,16.833],[-25.02,16.797],[-24.969,16.794],[-24.887,16.818],[-24.892,16.846],[-24.936,16.922],[-24.991,16.913]]}},{"type":"Feature","properties":{},"geometry":{"type":"LineString","coordinates":[[-17.325,28.118],[-17.274,28.038],[-17.225,28.014],[-17.185,28.022],[-17.101,28.083],[-17.104,28.111],[-17.13,28.156],[-17.214,28.199],[-17.259,28.203],[-17.29,28.176],[-17.325,28.118]]}},{"type":"Feature","properties":{},"geometry":{"type":"LineString","coordinates":[[-15.949,11.434],[-15.902,11.466],[-15.915,11.589],[-15.965,11.598],[-16.019,11.527],[-16.023,11.477],[-15.997,11.449],[-15.949,11.434]]}},{"type":"Feature","properties":{},"geometry":{"type":"LineString","coordinates":[[-16.102,11.773],[-16.038,11.76],[-15.986,11.882],[-16.022,11.887],[-16.152,11.877],[-16.147,11.846],[-16.102,11.773]]}},{"type":"Feature","properties":{},"geometry":{"type":"LineString","coordinates":[[-18.043,27.768],[-18.161,27.761],[-18.136,27.728],[-18.107,27.707],[-17.985,27.646],[-17.888,27.81],[-17.925,27.85],[-18.043,27.768]]}},{"type":"Feature","properties":{},"geometry":{"type":"LineString","coordinates":[[-22.693,16.169],[-22.749,16.222],[-22.803,16.226],[-22.834,16.219],[-22.918,16.237],[-22.916,16.148],[-22.959,16.045],[-22.884,15.993],[-22.821,15.986],[-22.71,16.043],[-22.682,16.113],[-22.693,16.169]]}},{"type":"Feature","properties":{},"geometry":{"type":"LineString","coordinates":[[-24.329,15.019],[-24.392,15.038],[-24.497,14.98],[-24.517,14.931],[-24.492,14.874],[-24.441,14.835],[-24.386,14.818],[-24.308,14.856],[-24.296,14.93],[-24.329,15.019]]}},{"type":"Feature","properties":{},"geometry":{"type":"LineString","coordinates":[[-17.929,28.845],[-18.001,28.758],[-17.882,28.565],[-17.859,28.486],[-17.834,28.493],[-17.758,28.569],[-17.744,28.616],[-17.752,28.689],[-17.727,28.724],[-17.745,28.787],[-17.798,28.847],[-17.929,28.845]]}},{"type":"Feature","properties":{},"geometry":{"type":"LineString","coordinates":[[-24.271,16.645],[-24.377,16.678],[-24.393,16.664],[-24.398,16.618],[-24.322,16.493],[-24.283,16.576],[-24.243,16.599],[-24.094,16.561],[-24.033,16.572],[-24.046,16.593],[-24.088,16.623],[-24.271,16.645]]}},{"type":"Feature","properties":{},"geometry":{"type":"LineString","coordinates":[[-22.904,16.732],[-22.905,16.844],[-22.933,16.841],[-22.991,16.809],[-22.981,16.701],[-22.959,16.683],[-22.92,16.608],[-22.888,16.659],[-22.904,16.732]]}},{"type":"Feature","properties":{},"geometry":{"type":"LineString","coordinates":[[-23.21,15.324],[-23.247,15.257],[-23.242,15.241],[-23.252,15.178],[-23.21,15.133],[-23.182,15.137],[-23.116,15.167],[-23.119,15.268],[-23.138,15.318],[-23.21,15.324]]}},{"type":"Feature","properties":{},"geometry":{"type":"LineString","coordinates":[[-23.535,15.139],[-23.58,15.161],[-23.701,15.272],[-23.707,15.317],[-23.748,15.329],[-23.759,15.311],[-23.754,15.244],[-23.783,15.166],[-23.785,15.077],[-23.705,14.961],[-23.637,14.923],[-23.505,14.916],[-23.444,15.008],[-23.535,15.139]]}},{"type":"Feature","properties":{},"geometry":{"type":"LineString","coordinates":[[11.255,34.82],[11.153,34.745],[11.124,34.682],[11.278,34.754],[11.281,34.802],[11.255,34.82]]}},{"type":"Feature","properties":{},"geometry":{"type":"LineString","coordinates":[[10.922,33.893],[10.745,33.889],[10.734,33.856],[10.722,33.739],[10.757,33.717],[10.785,33.718],[10.857,33.687],[10.883,33.69],[10.931,33.717],[10.958,33.722],[10.993,33.746],[11.038,33.785],[11.034,33.805],[11.018,33.823],[10.922,33.893]]}},{"type":"Feature","properties":{},"geometry":{"type":"LineString","coordinates":[[-4.412,54.185],[-4.392,54.225],[-4.338,54.269],[-4.377,54.393],[-4.396,54.403],[-4.425,54.407],[-4.509,54.377],[-4.615,54.267],[-4.699,54.225],[-4.746,54.119],[-4.785,54.073],[-4.766,54.069],[-4.696,54.081],[-4.614,54.059],[-4.412,54.185]]}},{"type":"Feature","properties":{},"geometry":{"type":"LineString","coordinates":[[-4.315,53.417],[-4.462,53.419],[-4.568,53.386],[-4.553,53.26],[-4.472,53.176],[-4.419,53.178],[-4.373,53.134],[-4.279,53.172],[-4.2,53.218],[-4.084,53.264],[-4.049,53.306],[-4.155,53.303],[-4.197,53.321],[-4.315,53.417]]}},{"type":"Feature","properties":{},"geometry":{"type":"LineString","coordinates":[[-10.14,54.005],[-10.181,54.017],[-10.266,53.978],[-10.062,53.96],[-10.027,53.92],[-9.953,53.885],[-9.948,53.913],[-9.956,53.987],[-9.996,54.003],[-10.14,54.005]]}},{"type":"Feature","properties":{},"geometry":{"type":"LineString","coordinates":[[13.602,54.425],[13.58,54.464],[13.603,54.488],[13.671,54.535],[13.658,54.56],[13.636,54.577],[13.491,54.615],[13.45,54.65],[13.423,54.699],[13.337,54.697],[13.24,54.638],[13.231,54.583],[13.177,54.544],[13.181,54.509],[13.156,54.397],[13.162,54.365],[13.19,54.326],[13.364,54.246],[13.415,54.25],[13.482,54.337],[13.595,54.338],[13.707,54.281],[13.734,54.315],[13.709,54.383],[13.602,54.425]]}},{"type":"Feature","properties":{},"geometry":{"type":"LineString","coordinates":[[12.229,55.0],[12.22,54.994],[12.162,54.975],[12.144,54.959],[12.119,54.914],[12.184,54.892],[12.358,54.962],[12.511,54.951],[12.549,54.966],[12.513,54.997],[12.507,55.0]]}},{"type":"Feature","properties":{},"geometry":{"type":"LineString","coordinates":[[11.658,54.833],[11.538,54.83],[11.361,54.892],[11.258,54.952],[11.059,54.941],[11.042,54.893],[11.036,54.773],[11.457,54.629],[11.586,54.662],[11.68,54.654],[11.766,54.679],[11.759,54.768],[11.74,54.807],[11.658,54.833]]}},{"type":"Feature","properties":{},"geometry":{"type":"LineString","coordinates":[[10.347,54.906],[10.266,54.949],[10.2,54.963],[10.216,54.941],[10.341,54.859],[10.417,54.837],[10.484,54.848],[10.505,54.861],[10.414,54.897],[10.347,54.906]]}},{"type":"Feature","properties":{},"geometry":{"type":"LineString","coordinates":[[9.785,55.0],[9.806,54.906],[9.904,54.897],[9.957,54.872],[10.061,54.886],[10.058,54.908],[9.999,54.986],[9.967,55.0]]}},{"type":"Feature","properties":{},"geometry":{"type":"MultiLineString","coordinates":[[[10.738,54.962],[10.692,54.903],[10.622,54.851],[10.629,54.826],[10.69,54.745],[10.734,54.751],[10.765,54.8],[10.884,55.0]],[[10.788,55.0],[10.738,54.962]]]}},{"type":"Feature","properties":{},"geometry":{"type":"LineString","coordinates":[[11.085,54.533],[11.043,54.515],[11.012,54.466],[11.071,54.456],[11.129,54.416],[11.283,54.418],[11.28,54.438],[11.234,54.501],[11.085,54.533]]}},{"type":"Feature","properties":{},"geometry":{"type":"LineString","coordinates":[[8.362,55.0],[8.296,54.908],[8.285,54.767],[8.308,54.787],[8.347,54.848],[8.601,54.865],[8.63,54.892],[8.38,54.9],[8.371,54.929],[8.39,54.986],[8.397,55.0]]}},{"type":"Feature","properties":{},"geometry":{"type":"LineString","coordinates":[[-1.389,46.05],[-1.389,46.033],[-1.369,45.968],[-1.28,45.897],[-1.214,45.817],[-1.178,45.904],[-1.285,46.003],[-1.389,46.05]]}},{"type":"Feature","properties":{},"geometry":{"type":"LineString","coordinates":[[-1.313,50.773],[-1.386,50.734],[-1.516,50.703],[-1.563,50.666],[-1.515,50.67],[-1.306,50.589],[-1.251,50.589],[-1.196,50.599],[-1.176,50.615],[-1.149,50.656],[-1.066,50.69],[-1.144,50.735],[-1.313,50.773]]}},{"type":"Feature","properties":{},"geometry":{"type":"LineString","coordinates":[[4.74,53.091],[4.709,53.036],[4.727,53.02],[4.787,53.0],[4.886,53.071],[4.886,53.183],[4.74,53.091]]}},{"type":"Feature","properties":{},"geometry":{"type":"LineString","coordinates":[[10.359,42.822],[10.286,42.828],[10.248,42.816],[10.128,42.81],[10.11,42.785],[10.131,42.742],[10.209,42.737],[10.336,42.761],[10.419,42.713],[10.41,42.771],[10.432,42.797],[10.428,42.819],[10.395,42.858],[10.359,42.822]]}},{"type":"Feature","properties":{},"geometry":{"type":"LineString","coordinates":[[8.367,39.116],[8.359,39.099],[8.361,39.039],[8.421,38.969],[8.479,39.068],[8.441,39.091],[8.367,39.116]]}},{"type":"Feature","properties":{},"geometry":{"type":"LineString","coordinates":[[8.344,41.102],[8.32,41.122],[8.267,41.099],[8.224,41.031],[8.206,40.997],[8.253,40.994],[8.286,41.04],[8.319,41.063],[8.344,41.102]]}},{"type":"Feature","properties":{},"geometry":{"type":"LineString","coordinates":[[4.059,40.075],[3.853,40.063],[3.845,40.036],[3.843,39.976],[3.867,39.959],[3.968,39.946],[4.275,39.83],[4.294,39.842],[4.322,39.898],[4.315,39.917],[4.226,40.032],[4.059,40.075]]}},{"type":"Feature","properties":{},"geometry":{"type":"LineString","coordinates":[[1.417,38.74],[1.402,38.711],[1.406,38.671],[1.505,38.671],[1.571,38.659],[1.594,38.672],[1.593,38.701],[1.497,38.712],[1.436,38.768],[1.417,38.74]]}},{"type":"Feature","properties":{},"geometry":{"type":"LineString","coordinates":[[1.349,39.081],[1.303,39.031],[1.3,38.982],[1.256,38.973],[1.223,38.904],[1.257,38.879],[1.409,38.857],[1.445,38.919],[1.495,38.933],[1.624,39.039],[1.613,39.087],[1.564,39.121],[1.349,39.081]]}},{"type":"Feature","properties":{},"geometry":{"type":"LineString","coordinates":[[-27.127,38.79],[-27.26,38.803],[-27.351,38.789],[-27.386,38.766],[-27.362,38.698],[-27.303,38.661],[-27.095,38.634],[-27.075,38.643],[-27.042,38.679],[-27.042,38.741],[-27.127,38.79]]}},{"type":"Feature","properties":{},"geometry":{"type":"LineString","coordinates":[[-28.311,38.744],[-28.187,38.655],[-28.092,38.621],[-27.826,38.544],[-27.778,38.556],[-27.963,38.636],[-28.311,38.744]]}},{"type":"Feature","properties":{},"geometry":{"type":"LineString","coordinates":[[-28.698,38.638],[-28.842,38.598],[-28.744,38.522],[-28.641,38.525],[-28.606,38.551],[-28.624,38.586],[-28.655,38.614],[-28.698,38.638]]}},{"type":"Feature","properties":{},"geometry":{"type":"LineString","coordinates":[[-28.402,38.553],[-28.51,38.553],[-28.549,38.519],[-28.531,38.463],[-28.454,38.409],[-28.332,38.413],[-28.231,38.385],[-28.19,38.404],[-28.065,38.413],[-28.147,38.453],[-28.402,38.553]]}},{"type":"Feature","properties":{},"geometry":{"type":"LineString","coordinates":[[-25.585,37.834],[-25.649,37.841],[-25.784,37.911],[-25.846,37.894],[-25.848,37.872],[-25.834,37.826],[-25.734,37.763],[-25.439,37.715],[-25.251,37.735],[-25.191,37.764],[-25.182,37.838],[-25.267,37.849],[-25.585,37.834]]}},{"type":"Feature","properties":{},"geometry":{"type":"LineString","coordinates":[[14.448,35.957],[14.351,35.978],[14.352,35.872],[14.436,35.822],[14.533,35.82],[14.566,35.853],[14.537,35.886],[14.448,35.957]]}},{"type":"Feature","properties":{},"geometry":{"type":"LineString","coordinates":[[15.231,44.062],[15.066,44.158],[15.075,44.138],[15.122,44.093],[15.247,44.027],[15.231,44.062]]}},{"type":"Feature","properties":{},"geometry":{"type":"LineString","coordinates":[[14.739,45.065],[14.701,45.09],[14.63,45.178],[14.571,45.225],[14.525,45.147],[14.438,45.099],[14.45,45.079],[14.512,45.035],[14.613,45.025],[14.628,44.994],[14.687,44.956],[14.81,44.977],[14.739,45.065]]}},{"type":"Feature","properties":{},"geometry":{"type":"LineString","coordinates":[[14.857,44.715],[14.831,44.759],[14.764,44.821],[14.754,44.845],[14.691,44.848],[14.672,44.824],[14.66,44.8],[14.678,44.77],[14.762,44.755],[14.857,44.715]]}},{"type":"Feature","properties":{},"geometry":{"type":"LineString","coordinates":[[14.913,44.486],[14.996,44.434],[15.039,44.393],[15.098,44.358],[15.163,44.309],[15.188,44.336],[15.214,44.348],[15.24,44.35],[15.113,44.436],[15.006,44.534],[14.898,44.611],[14.855,44.618],[14.804,44.649],[14.742,44.697],[14.76,44.665],[14.885,44.545],[14.913,44.486]]}},{"type":"Feature","properties":{},"geometry":{"type":"LineString","coordinates":[[14.953,44.117],[14.865,44.168],[14.891,44.126],[15.136,43.907],[15.15,43.912],[15.202,43.898],[15.203,43.908],[15.189,43.922],[14.953,44.117]]}},{"type":"Feature","properties":{},"geometry":{"type":"LineString","coordinates":[[15.374,43.915],[15.437,43.9],[15.371,43.974],[15.27,44.011],[15.309,43.961],[15.374,43.915]]}},{"type":"Feature","properties":{},"geometry":{"type":"LineString","coordinates":[[14.468,44.725],[14.453,44.869],[14.467,44.97],[14.394,45.031],[14.369,45.081],[14.358,45.167],[14.331,45.165],[14.286,45.145],[14.34,45.02],[14.342,44.98],[14.303,44.94],[14.312,44.9],[14.389,44.758],[14.42,44.67],[14.48,44.621],[14.488,44.66],[14.483,44.693],[14.468,44.725]]}},{"type":"Feature","properties":{},"geometry":{"type":"LineString","coordinates":[[17.39,42.799],[17.344,42.79],[17.744,42.7],[17.608,42.769],[17.432,42.8],[17.39,42.799]]}},{"type":"Feature","properties":{},"geometry":{"type":"LineString","coordinates":[[20.789,38.142],[20.695,38.246],[20.625,38.268],[20.612,38.383],[20.563,38.475],[20.55,38.457],[20.548,38.395],[20.52,38.332],[20.481,38.318],[20.435,38.356],[20.409,38.337],[20.352,38.222],[20.353,38.18],[20.391,38.188],[20.452,38.234],[20.473,38.219],[20.499,38.184],[20.496,38.164],[20.524,38.107],[20.569,38.098],[20.606,38.12],[20.761,38.071],[20.781,38.089],[20.789,38.142]]}},{"type":"Feature","properties":{},"geometry":{"type":"LineString","coordinates":[[20.84,37.841],[20.759,37.853],[20.692,37.93],[20.62,37.855],[20.635,37.823],[20.704,37.743],[20.819,37.665],[20.909,37.732],[20.994,37.708],[20.888,37.805],[20.84,37.841]]}},{"type":"Feature","properties":{},"geometry":{"type":"LineString","coordinates":[[20.648,38.601],[20.687,38.609],[20.715,38.638],[20.72,38.799],[20.694,38.844],[20.635,38.818],[20.592,38.76],[20.558,38.662],[20.555,38.583],[20.584,38.602],[20.614,38.606],[20.648,38.601]]}},{"type":"Feature","properties":{},"geometry":{"type":"LineString","coordinates":[[20.701,38.451],[20.675,38.476],[20.65,38.484],[20.624,38.48],[20.646,38.414],[20.709,38.319],[20.759,38.329],[20.739,38.366],[20.712,38.399],[20.701,38.426],[20.701,38.451]]}},{"type":"Feature","properties":{},"geometry":{"type":"LineString","coordinates":[[19.955,39.47],[19.927,39.506],[19.903,39.6],[19.904,39.619],[19.847,39.668],[19.862,39.693],[19.937,39.747],[19.926,39.774],[19.892,39.797],[19.839,39.82],[19.707,39.798],[19.646,39.767],[19.649,39.726],[19.809,39.585],[19.884,39.462],[19.975,39.411],[20.1,39.377],[20.078,39.433],[20.028,39.442],[19.955,39.47]]}},{"type":"Feature","properties":{},"geometry":{"type":"LineString","coordinates":[[23.511,37.901],[23.551,37.926],[23.535,37.97],[23.516,37.986],[23.484,37.991],[23.462,37.98],[23.439,37.941],[23.419,37.931],[23.435,37.911],[23.467,37.902],[23.511,37.901]]}},{"type":"Feature","properties":{},"geometry":{"type":"LineString","coordinates":[[22.95,36.384],[22.933,36.369],[22.906,36.32],[22.911,36.221],[22.939,36.176],[23.042,36.146],[23.054,36.19],[23.097,36.247],[22.998,36.328],[22.95,36.384]]}},{"type":"Feature","properties":{},"geometry":{"type":"LineString","coordinates":[[3.949,51.739],[3.789,51.746],[3.699,51.73],[3.699,51.71],[3.732,51.678],[3.819,51.694],[3.951,51.627],[4.075,51.649],[4.068,51.667],[4.047,51.685],[3.949,51.739]]}},{"type":"Feature","properties":{},"geometry":{"type":"LineString","coordinates":[[8.51,54.76],[8.468,54.757],[8.418,54.739],[8.4,54.714],[8.454,54.691],[8.549,54.688],[8.588,54.713],[8.573,54.749],[8.51,54.76]]}},{"type":"Feature","properties":{},"geometry":{"type":"LineString","coordinates":[[6.755,53.625],[6.669,53.606],[6.642,53.579],[6.735,53.583],[6.801,53.625],[6.755,53.625]]}},{"type":"Feature","properties":{},"geometry":{"type":"LineString","coordinates":[[25.403,37.419],[25.457,37.447],[25.463,37.471],[25.348,37.509],[25.313,37.489],[25.307,37.413],[25.403,37.419]]}},{"type":"Feature","properties":{},"geometry":{"type":"LineString","coordinates":[[24.484,37.21],[24.441,37.187],[24.425,37.132],[24.487,37.11],[24.524,37.125],[24.536,37.168],[24.529,37.192],[24.484,37.21]]}},{"type":"Feature","properties":{},"geometry":{"type":"MultiLineString","coordinates":[[[50.0,37.44],[49.981,37.445],[49.727,37.481],[49.47,37.497],[49.372,37.52],[49.171,37.601],[49.081,37.668],[49.015,37.776],[48.96,37.89],[48.925,38.015],[48.901,38.144],[48.871,38.393],[48.869,38.435],[48.851,38.815],[48.854,38.839],[48.926,38.962],[48.962,39.079],[49.013,39.134],[49.111,39.085],[49.109,39.029],[49.121,39.004],[49.165,39.03],[49.2,39.073],[49.269,39.285],[49.321,39.329],[49.363,39.35],[49.367,39.398],[49.328,39.501],[49.324,39.608],[49.415,39.84],[49.477,40.087],[49.551,40.194],[49.669,40.249],[49.792,40.288],[49.919,40.316],[50.0,40.319]],[[50.0,40.574],[49.991,40.577],[49.852,40.577],[49.776,40.584],[49.718,40.608],[49.556,40.716],[49.457,40.8],[49.226,41.026],[49.175,41.116],[49.143,41.218],[49.107,41.302],[49.051,41.374],[48.824,41.63],[48.665,41.787],[48.573,41.844],[48.477,41.905],[48.426,41.924],[48.384,41.953],[48.303,42.08],[48.229,42.181],[48.08,42.354],[47.822,42.613],[47.77,42.645],[47.728,42.681],[47.709,42.811],[47.635,42.903],[47.529,42.967],[47.489,43.0],[47.463,43.035],[47.513,43.219],[47.512,43.271],[47.49,43.382],[47.509,43.51],[47.568,43.685],[47.628,43.806],[47.646,43.885],[47.563,43.835],[47.463,43.555],[47.429,43.78],[47.362,43.993],[47.307,44.103],[47.23,44.192],[47.123,44.262],[47.024,44.343],[46.916,44.387],[46.753,44.421],[46.721,44.452],[46.707,44.503],[46.716,44.561],[46.755,44.657],[46.841,44.718],[46.957,44.783],[46.984,44.826],[47.003,44.876],[47.039,44.838],[47.084,44.817],[47.115,44.906],[47.162,44.97],[47.221,45.024],[47.296,45.149],[47.351,45.218],[47.391,45.295],[47.413,45.421],[47.454,45.433],[47.489,45.455],[47.515,45.491],[47.529,45.53],[47.524,45.602],[47.463,45.68],[47.479,45.688],[47.508,45.674],[47.574,45.634],[47.633,45.584],[47.65,45.657],[47.701,45.686],[47.764,45.666],[47.83,45.663],[48.053,45.721],[48.159,45.737],[48.258,45.778],[48.487,45.935],[48.537,45.942],[48.589,45.935],[48.637,45.906],[48.69,45.889],[48.73,45.897],[48.75,45.921],[48.703,45.976],[48.687,46.029],[48.684,46.086],[48.743,46.101],[48.81,46.1],[49.08,46.189],[49.111,46.228],[49.125,46.282],[49.246,46.292],[49.232,46.337],[49.206,46.386],[49.286,46.437],[49.362,46.41],[49.344,46.486],[49.347,46.519],[49.437,46.537],[49.584,46.545],[49.632,46.568],[49.761,46.571],[49.886,46.596],[50.0,46.634],[50.0,46.634]],[[21.202,55.0],[21.189,54.935],[20.996,54.903],[20.887,54.909],[20.774,54.947],[20.678,54.956],[20.595,54.982],[20.618,55.0]],[[20.528,55.0],[20.52,54.995],[20.397,54.951],[20.108,54.956],[19.975,54.921],[19.953,54.83],[19.944,54.75],[19.859,54.634],[19.758,54.545],[19.604,54.459],[19.56,54.435],[19.407,54.386],[18.976,54.349],[18.836,54.37],[18.67,54.431],[18.587,54.513],[18.436,54.745],[18.502,54.742],[18.678,54.665],[18.8,54.633],[18.759,54.685],[18.535,54.769],[18.323,54.838],[18.086,54.836],[17.843,54.817],[17.262,54.73],[17.007,54.652],[16.885,54.596],[16.56,54.554],[16.376,54.437],[16.292,54.362],[16.239,54.333],[16.186,54.29],[16.043,54.266],[15.9,54.254],[15.288,54.14],[14.716,54.018],[14.384,53.925],[14.249,53.932],[14.211,53.95],[14.039,54.035],[13.828,54.127],[13.82,54.093],[13.827,54.06],[13.872,54.036],[13.922,53.997],[13.902,53.939],[13.926,53.879],[14.048,53.863],[14.172,53.874],[14.351,53.859],[14.558,53.823],[14.565,53.754],[14.552,53.707],[14.572,53.676],[14.583,53.639],[14.488,53.672],[14.25,53.732],[14.025,53.767],[13.95,53.801],[13.866,53.853],[13.822,54.019],[13.724,54.153],[13.448,54.141],[13.147,54.283],[13.029,54.411],[12.898,54.423],[12.779,54.446],[12.575,54.467],[12.379,54.347],[12.296,54.284],[12.169,54.226],[12.111,54.168],[11.796,54.145],[11.701,54.114],[11.461,53.965],[11.4,53.945],[11.104,54.009],[10.918,53.995],[10.855,54.01],[10.811,54.075],[11.009,54.181],[11.064,54.281],[11.013,54.379],[10.956,54.376],[10.732,54.316],[10.36,54.438],[10.212,54.409],[10.171,54.45],[10.143,54.488],[9.869,54.472],[9.941,54.515],[10.029,54.581],[10.022,54.674],[9.954,54.738],[9.892,54.781],[9.746,54.807],[9.705,54.928],[9.732,54.968],[9.688,55.0]],[[8.656,55.0],[8.661,54.986],[8.682,54.792],[8.79,54.696],[8.881,54.594],[8.957,54.538],[8.952,54.468],[8.831,54.428],[8.648,54.398],[8.626,54.354],[8.645,54.295],[8.736,54.295],[8.78,54.313],[8.852,54.3],[8.907,54.261],[8.904,54.0],[8.92,53.965],[8.978,53.926],[9.07,53.901],[9.216,53.891],[9.312,53.859],[9.631,53.6],[9.784,53.555],[9.673,53.566],[9.585,53.6],[9.322,53.813],[9.206,53.856],[8.898,53.836],[8.619,53.875],[8.576,53.838],[8.528,53.781],[8.506,53.671],[8.538,53.557],[8.495,53.394],[8.493,53.514],[8.451,53.552],[8.334,53.606],[8.302,53.584],[8.279,53.511],[8.245,53.445],[8.201,53.432],[8.108,53.468],[8.167,53.543],[8.009,53.691],[7.629,53.697],[7.285,53.681],[7.206,53.655],[7.107,53.557],[7.074,53.478],[7.053,53.376],[7.152,53.327],[7.197,53.282],[7.058,53.301],[6.968,53.327],[6.912,53.375],[6.816,53.441],[6.564,53.434],[6.353,53.415],[6.062,53.407],[5.874,53.375],[5.532,53.269],[5.446,53.214],[5.358,53.096],[5.061,52.961],[4.888,52.908],[4.839,52.928],[4.769,52.941],[4.713,52.872],[4.678,52.81],[4.562,52.443],[4.483,52.309],[4.376,52.197],[4.209,52.059],[4.132,52.012],[4.085,51.994],[4.026,51.928],[3.979,51.848],[3.947,51.811],[4.135,51.673],[4.158,51.633],[4.183,51.61],[4.005,51.596],[4.08,51.551],[4.175,51.519],[4.239,51.504],[4.274,51.472],[4.206,51.457],[4.141,51.456],[3.886,51.574],[3.744,51.596],[3.549,51.589],[3.5,51.577],[3.449,51.541],[3.521,51.486],[3.587,51.454],[3.694,51.45],[3.822,51.409],[4.007,51.443],[4.139,51.402],[4.226,51.386],[4.112,51.361],[4.011,51.396],[3.883,51.354],[3.717,51.369],[3.589,51.399],[3.426,51.394],[3.35,51.378],[3.225,51.352],[2.96,51.265],[2.525,51.097],[2.446,51.067],[1.913,50.991],[1.768,50.936],[1.672,50.885],[1.61,50.819],[1.579,50.739],[1.552,50.294],[1.593,50.252],[1.548,50.231],[1.514,50.205],[1.407,50.089],[1.246,49.998],[0.924,49.91],[0.616,49.863],[0.187,49.703],[0.127,49.602],[0.109,49.558],[0.129,49.508],[0.278,49.463],[0.439,49.473],[0.417,49.448],[0.136,49.402],[-0.011,49.33],[-0.163,49.297],[-0.521,49.355],[-0.766,49.36],[-0.959,49.393],[-1.139,49.388],[-1.195,49.445],[-1.232,49.495],[-1.265,49.598],[-1.259,49.68],[-1.366,49.707],[-1.588,49.668],[-1.705,49.681],[-1.856,49.684],[-1.875,49.631],[-1.87,49.595],[-1.813,49.49],[-1.69,49.313],[-1.583,49.202],[-1.565,48.806],[-1.48,48.698],[-1.376,48.653],[-1.438,48.641],[-1.825,48.631],[-1.852,48.669],[-1.906,48.697],[-1.973,48.635],[-2.004,48.582],[-2.079,48.645],[-2.446,48.648],[-2.692,48.537],[-2.793,48.601],[-3.003,48.791],[-3.231,48.841],[-3.471,48.813],[-3.546,48.766],[-3.715,48.71],[-3.856,48.695],[-4.059,48.708],[-4.531,48.62],[-4.721,48.54],[-4.763,48.45],[-4.749,48.41],[-4.719,48.363],[-4.585,48.358],[-4.525,48.372],[-4.393,48.368],[-4.364,48.357],[-4.302,48.347],[-4.241,48.304],[-4.403,48.293],[-4.498,48.299],[-4.531,48.31],[-4.577,48.29],[-4.544,48.247],[-4.512,48.23],[-4.435,48.218],[-4.329,48.17],[-4.378,48.129],[-4.512,48.097],[-4.629,48.086],[-4.679,48.04],[-4.428,47.969],[-4.375,47.877],[-4.312,47.823],[-4.226,47.81],[-4.071,47.848],[-3.901,47.838],[-3.508,47.753],[-3.444,47.711],[-3.396,47.72],[-3.329,47.713],[-3.265,47.685],[-3.222,47.694],[-3.159,47.695],[-3.064,47.621],[-2.964,47.601],[-2.859,47.614],[-2.787,47.626],[-2.733,47.602],[-2.797,47.537],[-2.77,47.514],[-2.666,47.526],[-2.554,47.527],[-2.483,47.512],[-2.428,47.471],[-2.476,47.413],[-2.53,47.382],[-2.503,47.312],[-2.434,47.291],[-2.353,47.279],[-1.975,47.311],[-1.743,47.216],[-1.821,47.225],[-1.922,47.261],[-2.028,47.274],[-2.108,47.263],[-2.149,47.224],[-2.197,47.163],[-2.144,47.126],[-2.082,47.112],[-2.019,47.038],[-2.09,46.921],[-2.092,46.865],[-2.059,46.81],[-1.921,46.685],[-1.787,46.515],[-1.392,46.35],[-1.313,46.327],[-1.239,46.325],[-1.146,46.311],[-1.132,46.253],[-1.136,46.205],[-1.104,45.925],[-1.066,45.806],[-1.042,45.773],[-1.032,45.741],[-1.114,45.769],[-1.21,45.771],[-1.196,45.714],[-1.17,45.686],[-0.881,45.538],[-0.791,45.468],[-0.733,45.385],[-0.641,45.09],[-0.582,45.051],[-0.548,45.001],[-0.634,45.047],[-0.691,45.093],[-0.767,45.314],[-0.826,45.381],[-0.942,45.457],[-1.081,45.532],[-1.149,45.343],[-1.189,45.161],[-1.245,44.667],[-1.22,44.687],[-1.2,44.726],[-1.153,44.764],[-1.077,44.69],[-1.171,44.662],[-1.246,44.56],[-1.346,44.02],[-1.485,43.564],[-1.631,43.438],[-1.794,43.407],[-1.829,43.401],[-1.991,43.345],[-2.197,43.322],[-2.337,43.328],[-2.607,43.413],[-2.875,43.454],[-2.948,43.44],[-3.046,43.372],[-3.418,43.452],[-3.524,43.511],[-3.605,43.519],[-3.774,43.478],[-3.889,43.499],[-4.015,43.463],[-4.313,43.415],[-4.523,43.416],[-5.105,43.502],[-5.316,43.553],[-5.666,43.582],[-5.847,43.645],[-6.08,43.595],[-6.224,43.604],[-6.476,43.579],[-6.617,43.592],[-6.901,43.586],[-7.061,43.554],[-7.262,43.595],[-7.399,43.696],[-7.504,43.74],[-7.595,43.727],[-7.698,43.765],[-7.853,43.707],[-8.005,43.694],[-8.137,43.629],[-8.257,43.58],[-8.289,43.54],[-8.252,43.497],[-8.249,43.439],[-8.355,43.397],[-8.422,43.386],[-8.537,43.337],[-8.666,43.317],[-8.874,43.334],[-9.025,43.239],[-9.096,43.214],[-9.178,43.174],[-9.236,43.036],[-9.235,42.977],[-9.179,42.911],[-9.127,42.865],[-9.042,42.814],[-8.927,42.799],[-8.937,42.767],[-9.035,42.662],[-9.033,42.594],[-8.988,42.586],[-8.812,42.64],[-8.8,42.6],[-8.81,42.562],[-8.812,42.47],[-8.776,42.435],[-8.73,42.412],[-8.769,42.358],[-8.81,42.334],[-8.816,42.285],[-8.729,42.287],[-8.691,42.274],[-8.772,42.211],[-8.887,42.105],[-8.878,41.947],[-8.852,41.927],[-8.777,41.941],[-8.878,41.832],[-8.888,41.765],[-8.846,41.705],[-8.755,41.698],[-8.811,41.652],[-8.806,41.56],[-8.738,41.285],[-8.675,41.154],[-8.66,41.086],[-8.656,41.029],[-8.674,40.917],[-8.685,40.753],[-8.732,40.651],[-8.772,40.606],[-8.873,40.259],[-8.887,40.179],[-8.851,40.152],[-8.838,40.116],[-9.004,39.821],[-9.148,39.543],[-9.251,39.426],[-9.32,39.391],[-9.375,39.338],[-9.357,39.284],[-9.353,39.248],[-9.414,39.112],[-9.431,38.96],[-9.475,38.853],[-9.48,38.799],[-9.474,38.731],[-9.41,38.708],[-9.357,38.698],[-9.252,38.713],[-9.136,38.743],[-9.091,38.835],[-8.954,39.016],[-8.867,39.066],[-8.792,39.078],[-8.938,38.998],[-9.0,38.903],[-8.977,38.803],[-9.021,38.747],[-9.093,38.697],[-9.178,38.688],[-9.25,38.657],[-9.203,38.539],[-9.213,38.448],[-9.187,38.438],[-9.096,38.455],[-8.915,38.512],[-8.862,38.51],[-8.799,38.518],[-8.734,38.482],[-8.668,38.424],[-8.881,38.447],[-8.811,38.3],[-8.802,38.184],[-8.879,37.959],[-8.823,37.872],[-8.792,37.733],[-8.819,37.592],[-8.814,37.431],[-8.926,37.166],[-8.998,37.032],[-8.935,37.016],[-8.848,37.076],[-8.739,37.075],[-8.598,37.121],[-8.484,37.1],[-8.137,37.077],[-7.94,37.005],[-7.834,37.006],[-7.494,37.168],[-7.406,37.179],[-7.175,37.209],[-6.975,37.198],[-6.929,37.215],[-6.864,37.279],[-6.859,37.249],[-6.885,37.194],[-6.492,36.955],[-6.396,36.832],[-6.321,36.908],[-6.217,36.914],[-6.259,36.899],[-6.328,36.848],[-6.412,36.729],[-6.384,36.637],[-6.269,36.597],[-6.258,36.565],[-6.266,36.527],[-6.226,36.426],[-6.17,36.334],[-6.041,36.188],[-5.961,36.182],[-5.808,36.088],[-5.625,36.026],[-5.551,36.039],[-5.463,36.074],[-5.444,36.151],[-5.407,36.159],[-5.382,36.134],[-5.361,36.135],[-5.33,36.236],[-5.231,36.374],[-5.171,36.424],[-4.935,36.502],[-4.674,36.506],[-4.502,36.629],[-4.435,36.7],[-4.367,36.718],[-3.828,36.756],[-3.579,36.74],[-3.431,36.708],[-3.259,36.756],[-3.149,36.758],[-2.902,36.743],[-2.788,36.715],[-2.671,36.748],[-2.596,36.806],[-2.453,36.831],[-2.306,36.82],[-2.188,36.745],[-2.112,36.777],[-1.939,36.946],[-1.798,37.233],[-1.641,37.387],[-1.328,37.561],[-0.938,37.571],[-0.822,37.581],[-0.772,37.596],[-0.722,37.631],[-0.823,37.712],[-0.815,37.77],[-0.753,37.85],[-0.742,37.886],[-0.683,37.992],[-0.647,38.152],[-0.551,38.203],[-0.521,38.317],[-0.381,38.436],[-0.053,38.586],[0.136,38.697],[0.202,38.759],[0.155,38.825],[-0.034,38.891],[-0.134,38.969],[-0.205,39.063],[-0.329,39.417],[-0.327,39.52],[-0.075,39.876],[0.043,40.014],[0.158,40.107],[0.364,40.319],[0.596,40.615],[0.627,40.622],[0.66,40.613],[0.721,40.63],[0.859,40.686],[0.891,40.722],[0.796,40.804],[0.715,40.823],[0.817,40.892],[1.033,41.062],[1.206,41.098],[1.567,41.196],[2.083,41.287],[2.146,41.321],[2.311,41.467],[3.005,41.767],[3.147,41.861],[3.248,41.944],[3.238,42.082],[3.225,42.111],[3.175,42.136],[3.15,42.162],[3.166,42.256],[3.219,42.26],[3.307,42.289],[3.288,42.344],[3.24,42.368],[3.211,42.431],[3.198,42.461],[3.091,42.591],[3.043,42.838],[3.052,42.915],[3.163,43.081],[3.259,43.193],[3.785,43.462],[3.862,43.516],[3.911,43.563],[4.053,43.593],[4.075,43.582],[4.113,43.563],[4.163,43.504],[4.224,43.48],[4.376,43.456],[4.41,43.447],[4.629,43.387],[4.712,43.373],[4.789,43.379],[4.787,43.401],[4.808,43.405],[4.844,43.394],[4.874,43.412],[4.912,43.427],[4.976,43.427],[5.06,43.445],[5.061,43.406],[5.073,43.367],[5.12,43.349],[5.2,43.352],[5.32,43.345],[5.407,43.229],[5.672,43.178],[5.809,43.098],[6.031,43.101],[6.116,43.072],[6.305,43.139],[6.494,43.169],[6.57,43.199],[6.657,43.262],[6.687,43.335],[6.717,43.374],[6.865,43.438],[7.181,43.659],[7.262,43.696],[7.378,43.732],[7.439,43.75],[7.493,43.767],[7.733,43.803],[8.005,43.877],[8.082,43.919],[8.292,44.137],[8.552,44.346],[8.766,44.422],[8.93,44.408],[9.196,44.323],[9.289,44.319],[9.731,44.101],[10.048,44.02],[10.188,43.948],[10.246,43.852],[10.321,43.513],[10.448,43.371],[10.521,43.204],[10.532,43.14],[10.517,43.065],[10.515,42.968],[10.59,42.954],[10.645,42.957],[10.708,42.936],[10.737,42.9],[10.765,42.845],[10.803,42.804],[10.938,42.739],[11.168,42.535],[11.185,42.457],[11.142,42.444],[11.103,42.417],[11.141,42.39],[11.189,42.393],[11.25,42.416],[11.296,42.423],[11.498,42.363],[11.637,42.288],[11.807,42.082],[12.075,41.941],[12.206,41.813],[12.631,41.47],[12.849,41.409],[13.024,41.301],[13.041,41.266],[13.089,41.244],[13.183,41.278],[13.247,41.289],[13.362,41.279],[13.555,41.232],[13.67,41.254],[13.733,41.236],[13.86,41.13],[14.048,40.87],[14.044,40.812],[14.076,40.794],[14.102,40.827],[14.147,40.821],[14.309,40.813],[14.428,40.759],[14.461,40.729],[14.34,40.599],[14.383,40.6],[14.459,40.633],[14.557,40.626],[14.611,40.645],[14.766,40.668],[14.84,40.63],[14.907,40.556],[14.948,40.469],[14.986,40.377],[14.929,40.31],[14.927,40.265],[14.951,40.239],[15.295,40.07],[15.391,40.052],[15.585,40.053],[15.693,39.99],[15.764,39.87],[15.854,39.627],[16.024,39.354],[16.071,39.139],[16.107,39.024],[16.21,38.941],[16.197,38.759],[16.066,38.736],[15.972,38.713],[15.927,38.672],[15.879,38.614],[15.905,38.483],[15.822,38.303],[15.7,38.262],[15.643,38.175],[15.646,38.034],[15.725,37.939],[16.057,37.942],[16.11,38.019],[16.144,38.086],[16.282,38.25],[16.546,38.409],[16.574,38.494],[16.559,38.715],[16.617,38.8],[16.755,38.89],[16.951,38.94],[17.099,38.919],[17.175,38.998],[17.123,39.137],[17.115,39.381],[16.999,39.482],[16.824,39.578],[16.598,39.639],[16.522,39.748],[16.53,39.86],[16.67,40.137],[16.807,40.326],[16.928,40.458],[17.031,40.513],[17.18,40.503],[17.215,40.486],[17.249,40.438],[17.258,40.399],[17.396,40.34],[17.476,40.315],[17.865,40.28],[18.078,39.937],[18.219,39.853],[18.344,39.821],[18.393,39.904],[18.423,39.987],[18.486,40.105],[18.461,40.221],[18.328,40.371],[18.036,40.565],[17.955,40.655],[17.474,40.841],[17.275,40.975],[17.103,41.062],[16.552,41.232],[16.013,41.435],[15.9,41.512],[15.914,41.621],[16.034,41.701],[16.151,41.758],[16.189,41.814],[16.165,41.896],[16.062,41.928],[15.964,41.939],[15.405,41.913],[15.169,41.934],[14.866,42.053],[14.541,42.244],[14.183,42.506],[14.01,42.69],[13.925,42.852],[13.805,43.18],[13.693,43.39],[13.564,43.571],[13.508,43.612],[13.295,43.686],[12.907,43.921],[12.691,43.995],[12.487,44.134],[12.396,44.224],[12.305,44.429],[12.248,44.723],[12.279,44.832],[12.319,44.833],[12.384,44.798],[12.464,44.845],[12.498,44.899],[12.523,44.968],[12.392,45.04],[12.286,45.208],[12.226,45.242],[12.249,45.369],[12.274,45.446],[12.354,45.492],[12.492,45.546],[12.536,45.545],[12.432,45.468],[12.498,45.462],[12.612,45.497],[12.761,45.544],[12.903,45.611],[13.03,45.638],[13.12,45.698],[13.157,45.747],[13.206,45.771],[13.465,45.71],[13.558,45.771],[13.628,45.771],[13.783,45.627],[13.72,45.588],[13.637,45.536],[13.578,45.517],[13.517,45.482],[13.603,45.231],[13.613,45.163],[13.629,45.108],[13.742,44.992],[13.861,44.837],[13.9,44.829],[13.966,44.836],[14.042,44.927],[14.091,44.998],[14.236,45.16],[14.269,45.283],[14.313,45.338],[14.386,45.342],[14.55,45.298],[14.632,45.223],[14.855,45.081],[14.907,44.971],[14.885,44.818],[14.895,44.707],[14.981,44.603],[15.27,44.383],[15.381,44.328],[15.471,44.272],[15.37,44.289],[15.284,44.289],[15.231,44.271],[15.185,44.273],[15.123,44.257],[15.186,44.172],[15.499,43.909],[15.656,43.811],[15.821,43.736],[15.942,43.657],[15.949,43.607],[15.943,43.569],[15.986,43.52],[16.046,43.506],[16.131,43.506],[16.269,43.531],[16.394,43.543],[16.6,43.464],[16.903,43.392],[17.129,43.211],[17.33,43.115],[17.537,42.962],[17.585,42.938],[17.668,42.897],[17.724,42.851],[17.22,43.026],[17.126,43.026],[17.045,43.015],[17.258,42.968],[17.585,42.837],[17.824,42.797],[18.161,42.634],[18.333,42.528],[18.517,42.433],[18.554,42.429],[18.592,42.444],[18.646,42.443],[18.633,42.423],[18.619,42.398],[18.633,42.378],[18.894,42.249],[19.122,42.06],[19.186,41.949],[19.342,41.869],[19.468,41.856],[19.578,41.788],[19.576,41.64],[19.546,41.597],[19.497,41.563],[19.441,41.425],[19.453,41.321],[19.48,41.236],[19.456,41.106],[19.461,40.933],[19.384,40.791],[19.337,40.664],[19.345,40.622],[19.439,40.47],[19.459,40.405],[19.441,40.376],[19.395,40.394],[19.359,40.409],[19.322,40.407],[19.36,40.348],[19.398,40.285],[19.485,40.21],[19.852,40.044],[19.965,39.872],[19.996,39.801],[20.001,39.709],[20.099,39.641],[20.191,39.546],[20.301,39.327],[20.468,39.255],[20.572,39.148],[20.691,39.067],[20.713,39.035],[20.78,39.009],[20.923,39.037],[21.034,39.026],[21.069,39.032],[21.118,39.03],[21.145,38.979],[21.152,38.922],[21.112,38.896],[21.074,38.885],[20.893,38.941],[20.777,38.928],[20.769,38.874],[20.777,38.808],[20.873,38.776],[20.992,38.654],[21.06,38.503],[21.113,38.385],[21.183,38.346],[21.303,38.374],[21.33,38.424],[21.331,38.487],[21.355,38.475],[21.39,38.408],[21.473,38.321],[21.568,38.334],[21.65,38.354],[21.717,38.355],[21.805,38.367],[21.965,38.412],[22.227,38.353],[22.32,38.357],[22.385,38.386],[22.422,38.439],[22.583,38.345],[22.754,38.29],[22.784,38.262],[22.834,38.235],[22.933,38.202],[22.995,38.216],[23.034,38.202],[23.094,38.196],[23.149,38.176],[23.183,38.134],[23.153,38.096],[23.122,38.073],[22.955,38.075],[22.893,38.051],[22.917,38.007],[22.92,37.958],[22.846,37.968],[22.8,37.981],[22.712,38.047],[22.556,38.113],[22.244,38.189],[21.953,38.321],[21.825,38.328],[21.748,38.274],[21.658,38.175],[21.549,38.165],[21.451,38.205],[21.404,38.197],[21.308,38.027],[21.145,37.919],[21.125,37.892],[21.138,37.854],[21.205,37.829],[21.288,37.775],[21.329,37.669],[21.416,37.64],[21.571,37.541],[21.679,37.387],[21.692,37.309],[21.579,37.2],[21.583,37.081],[21.738,36.863],[21.892,36.737],[21.934,36.804],[21.94,36.892],[21.956,36.99],[22.012,37.017],[22.08,37.029],[22.134,36.964],[22.165,36.903],[22.231,36.883],[22.376,36.702],[22.381,36.646],[22.375,36.514],[22.428,36.476],[22.489,36.447],[22.489,36.568],[22.608,36.78],[22.717,36.794],[22.78,36.786],[22.832,36.687],[22.983,36.528],[23.061,36.487],[23.107,36.452],[23.16,36.448],[23.112,36.548],[23.041,36.645],[23.074,36.775],[23.06,36.854],[22.995,37.016],[22.851,37.291],[22.765,37.393],[22.725,37.542],[22.775,37.585],[22.851,37.532],[22.941,37.517],[23.015,37.482],[23.096,37.441],[23.1,37.364],[23.162,37.334],[23.203,37.349],[23.253,37.377],[23.489,37.44],[23.491,37.464],[23.458,37.497],[23.409,37.542],[23.396,37.58],[23.348,37.598],[23.263,37.595],[23.198,37.62],[23.147,37.716],[23.147,37.795],[23.086,37.853],[23.036,37.878],[23.047,37.903],[23.087,37.913],[23.194,37.959],[23.42,37.992],[23.502,38.035],[23.537,38.033],[23.58,38.011],[23.733,37.884],[23.877,37.778],[23.972,37.677],[24.02,37.678],[24.055,37.71],[24.062,37.775],[24.061,37.818],[24.033,37.955],[24.025,38.14],[24.005,38.227],[23.967,38.275],[23.836,38.325],[23.684,38.352],[23.57,38.489],[23.369,38.526],[23.253,38.661],[23.138,38.668],[23.02,38.742],[22.774,38.8],[22.688,38.849],[22.634,38.851],[22.569,38.867],[22.597,38.891],[22.677,38.899],[22.803,38.902],[22.93,38.948],[23.067,39.038],[22.966,39.031],[22.939,39.112],[22.886,39.17],[22.839,39.259],[22.921,39.306],[22.993,39.331],[23.162,39.258],[23.169,39.21],[23.119,39.133],[23.155,39.101],[23.218,39.104],[23.328,39.175],[23.288,39.289],[23.233,39.358],[23.103,39.492],[22.979,39.564],[22.919,39.629],[22.836,39.801],[22.592,40.037],[22.569,40.119],[22.605,40.276],[22.643,40.367],[22.625,40.429],[22.629,40.496],[22.742,40.536],[22.811,40.579],[22.922,40.591],[22.893,40.524],[22.851,40.491],[22.896,40.4],[23.098,40.304],[23.312,40.216],[23.328,40.09],[23.396,39.99],[23.627,39.924],[23.658,39.934],[23.674,39.959],[23.467,40.074],[23.433,40.115],[23.386,40.222],[23.426,40.264],[23.665,40.224],[23.835,40.022],[23.947,39.966],[23.982,39.994],[24.001,40.025],[23.967,40.115],[23.918,40.155],[23.823,40.205],[23.721,40.286],[23.728,40.33],[23.823,40.368],[23.913,40.359],[24.056,40.304],[24.159,40.28],[24.232,40.215],[24.343,40.148],[24.292,40.242],[24.213,40.328],[24.031,40.409],[23.932,40.406],[23.867,40.419],[23.832,40.482],[23.879,40.544],[23.779,40.628],[23.743,40.677],[23.763,40.748],[23.946,40.748],[24.082,40.724],[24.234,40.786],[24.384,40.913],[24.477,40.948],[24.557,40.936],[24.679,40.869],[24.793,40.858],[25.005,40.968],[25.104,40.995],[25.25,40.933],[25.325,40.943],[25.497,40.888],[25.856,40.844],[26.011,40.769],[26.039,40.727],[26.068,40.683],[26.105,40.611],[26.224,40.618],[26.361,40.606],[26.578,40.625],[26.792,40.627],[26.72,40.544],[26.447,40.445],[26.355,40.39],[26.254,40.315],[26.252,40.248],[26.26,40.202],[26.226,40.142],[26.203,40.075],[26.272,40.097],[26.33,40.123],[26.468,40.261],[26.772,40.498],[26.975,40.564],[27.258,40.687],[27.43,40.84],[27.499,40.973],[27.747,41.013],[27.925,40.991],[28.086,41.061],[28.172,41.081],[28.295,41.071],[28.78,40.974],[28.956,41.008],[28.996,41.061],[29.032,41.14],[29.057,41.23],[28.947,41.248],[28.346,41.466],[28.198,41.554],[28.05,41.729],[27.987,41.855],[28.014,41.969],[27.983,42.047],[27.821,42.208],[27.708,42.35],[27.64,42.401],[27.485,42.468],[27.754,42.707],[27.818,42.717],[27.889,42.75],[27.896,43.021],[27.929,43.186],[27.979,43.231],[28.035,43.268],[28.134,43.396],[28.32,43.427],[28.465,43.389],[28.562,43.501],[28.585,43.742],[28.591,43.797],[28.659,43.984],[28.645,44.296],[28.699,44.374],[28.852,44.506],[28.888,44.575],[28.807,44.565],[28.814,44.602],[28.846,44.637],[28.849,44.716],[28.87,44.75],[28.926,44.81],[28.892,44.919],[28.931,44.966],[28.981,44.993],[29.095,44.975],[29.048,44.926],[29.069,44.871],[29.081,44.799],[29.048,44.758],[29.558,44.843],[29.605,44.915],[29.635,44.98],[29.679,45.152],[29.689,45.193],[29.706,45.26],[29.727,45.343],[29.67,45.541],[29.601,45.6],[29.602,45.683],[29.628,45.722],[29.685,45.755],[29.821,45.732],[29.902,45.752],[30.007,45.798],[30.184,45.85],[30.219,45.867],[30.493,46.09],[30.512,46.105],[30.657,46.267],[30.672,46.304],[30.722,46.366],[30.773,46.473],[30.796,46.552],[31.137,46.624],[31.32,46.612],[31.403,46.629],[31.497,46.738],[31.563,46.777],[31.532,46.665],[31.657,46.642],[31.78,46.632],[31.873,46.65],[31.902,46.722],[31.913,46.926],[31.866,47.003],[31.837,47.087],[31.759,47.213],[31.838,47.157],[31.865,47.095],[31.94,46.982],[31.964,46.855],[31.945,46.784],[31.974,46.709],[32.044,46.642],[32.127,46.597],[32.354,46.565],[32.578,46.616],[32.553,46.592],[32.419,46.518],[32.361,46.475],[32.131,46.509],[31.878,46.522],[31.716,46.555],[31.555,46.554],[31.624,46.51],[31.714,46.472],[31.856,46.462],[32.008,46.43],[32.013,46.387],[31.992,46.364],[31.916,46.349],[31.843,46.346],[31.78,46.325],[31.831,46.282],[31.925,46.287],[32.036,46.261],[32.33,46.13],[32.477,46.084],[32.797,46.131],[32.942,46.124],[33.202,46.176],[33.263,46.126],[33.43,46.058],[33.499,46.079],[33.594,46.096],[33.637,46.033],[33.665,45.947],[33.466,45.838],[33.28,45.765],[33.142,45.749],[32.828,45.593],[32.508,45.404],[32.552,45.35],[32.611,45.328],[32.773,45.359],[32.919,45.348],[33.187,45.195],[33.262,45.171],[33.392,45.188],[33.555,45.098],[33.601,44.981],[33.612,44.908],[33.53,44.681],[33.491,44.619],[33.463,44.597],[33.451,44.554],[33.656,44.433],[33.756,44.399],[33.91,44.388],[34.074,44.424],[34.282,44.538],[34.47,44.722],[34.717,44.807],[34.888,44.824],[35.088,44.803],[35.155,44.896],[35.358,44.978],[35.473,45.098],[35.57,45.119],[35.678,45.102],[35.759,45.071],[35.804,45.04],[35.87,45.005],[36.055,45.031],[36.23,45.026],[36.393,45.065],[36.428,45.153],[36.451,45.232],[36.514,45.304],[36.575,45.394],[36.427,45.433],[36.29,45.457],[36.171,45.453],[36.077,45.424],[36.013,45.372],[35.833,45.402],[35.751,45.389],[35.558,45.311],[35.458,45.316],[35.374,45.354],[35.26,45.447],[35.023,45.701],[34.907,45.879],[34.857,45.987],[34.844,46.074],[34.85,46.19],[34.97,46.242],[35.064,46.267],[35.23,46.441],[35.292,46.371],[35.291,46.314],[35.28,46.279],[35.218,46.232],[35.015,46.106],[35.055,46.104],[35.132,46.126],[35.204,46.169],[35.257,46.204],[35.4,46.381],[35.827,46.624],[36.025,46.667],[36.195,46.646],[36.279,46.659],[36.432,46.733],[36.559,46.763],[36.689,46.764],[36.795,46.714],[36.932,46.825],[37.048,46.876],[37.219,46.917],[37.34,46.917],[37.543,47.075],[37.829,47.096],[38.178,47.08],[38.214,47.091],[38.485,47.176],[38.577,47.239],[38.762,47.262],[38.736,47.236],[38.644,47.212],[38.552,47.15],[38.668,47.144],[38.928,47.176],[39.024,47.272],[39.196,47.269],[39.245,47.2],[39.293,47.106],[39.289,47.071],[39.271,47.044],[39.127,47.023],[38.801,46.906],[38.631,46.873],[38.439,46.813],[38.488,46.732],[38.501,46.664],[38.343,46.678],[38.23,46.701],[38.159,46.691],[37.968,46.618],[37.867,46.634],[37.767,46.636],[37.81,46.532],[37.914,46.406],[37.978,46.383],[38.078,46.394],[38.315,46.242],[38.492,46.091],[38.4,46.08],[38.312,46.095],[38.184,46.095],[38.133,46.003],[38.08,45.935],[38.07,45.97],[38.074,46.017],[38.014,46.048],[37.933,46.002],[37.841,45.8],[37.669,45.654],[37.612,45.565],[37.61,45.5],[37.634,45.486],[37.672,45.488],[37.673,45.43],[37.647,45.377],[37.264,45.311],[37.214,45.272],[37.104,45.303],[36.978,45.384],[36.866,45.427],[36.794,45.41],[36.72,45.372],[36.762,45.348],[36.811,45.34],[36.941,45.29],[36.873,45.252],[36.619,45.185],[36.628,45.151],[36.651,45.126],[36.944,45.07],[37.205,44.972],[37.284,44.905],[37.352,44.788],[37.411,44.735],[37.495,44.695],[37.572,44.671],[37.705,44.661],[37.851,44.699],[38.181,44.42],[38.312,44.374],[38.636,44.318],[38.717,44.288],[39.329,43.897],[39.517,43.728],[39.874,43.473],[39.978,43.42],[40.191,43.312],[40.462,43.146],[40.524,43.121],[40.837,43.063],[41.062,42.931],[41.129,42.828],[41.419,42.738],[41.489,42.659],[41.578,42.398],[41.663,42.147],[41.763,41.97],[41.761,41.885],[41.759,41.817],[41.702,41.705],[41.51,41.517],[41.414,41.424],[41.084,41.261],[40.959,41.212],[40.82,41.19],[40.688,41.107],[40.265,40.961],[40.128,40.943],[40.0,40.977],[39.911,40.966],[39.808,40.983],[39.426,41.106],[38.852,41.018],[38.557,40.937],[38.381,40.925],[37.91,41.002],[37.766,41.079],[37.431,41.114],[37.066,41.184],[36.992,41.275],[36.778,41.363],[36.647,41.353],[36.587,41.327],[36.51,41.263],[36.405,41.275],[36.278,41.336],[36.179,41.427],[36.052,41.683],[35.978,41.705],[35.92,41.714],[35.558,41.634],[35.298,41.729],[35.209,41.794],[35.122,41.891],[35.114,41.957],[35.141,41.99],[35.155,42.028],[35.006,42.063],[34.75,41.957],[34.193,41.964],[33.381,42.018],[33.285,42.005],[32.947,41.892],[32.542,41.806],[32.306,41.73],[32.086,41.589],[31.458,41.32],[31.347,41.158],[31.255,41.108],[30.81,41.085],[30.345,41.197],[29.919,41.151],[29.322,41.228],[29.148,41.221],[29.094,41.177],[29.067,41.102],[29.046,41.008],[29.082,40.963],[29.114,40.938],[29.26,40.847],[29.365,40.809],[29.801,40.76],[29.849,40.76],[29.845,40.738],[29.508,40.708],[29.054,40.649],[28.958,40.631],[28.788,40.534],[28.841,40.503],[28.895,40.482],[28.974,40.467],[29.055,40.424],[29.007,40.39],[28.739,40.391],[28.63,40.376],[28.289,40.403],[27.963,40.37],[27.929,40.38],[27.964,40.435],[27.995,40.467],[27.99,40.489],[27.875,40.513],[27.769,40.51],[27.732,40.481],[27.849,40.382],[27.789,40.351],[27.728,40.329],[27.476,40.32],[27.333,40.376],[27.314,40.415],[27.285,40.456],[27.122,40.452],[27.012,40.396],[26.738,40.4],[26.475,40.197],[26.313,40.025],[26.181,39.99],[26.15,39.873],[26.155,39.657],[26.101,39.569],[26.096,39.521],[26.113,39.467],[26.351,39.484],[26.484,39.521],[26.827,39.563],[26.899,39.55],[26.911,39.517],[26.813,39.419],[26.711,39.34],[26.682,39.292],[26.719,39.261],[26.854,39.116],[26.849,39.057],[26.808,39.014],[26.815,38.961],[26.866,38.923],[26.92,38.934],[26.97,38.919],[27.014,38.887],[26.909,38.776],[26.79,38.736],[26.764,38.71],[26.788,38.66],[26.795,38.626],[26.838,38.558],[26.907,38.482],[26.97,38.448],[27.144,38.452],[27.099,38.416],[26.861,38.373],[26.77,38.388],[26.727,38.419],[26.696,38.405],[26.674,38.336],[26.641,38.352],[26.595,38.419],[26.61,38.487],[26.587,38.557],[26.514,38.629],[26.441,38.641],[26.378,38.624],[26.372,38.562],[26.43,38.441],[26.416,38.368],[26.344,38.37],[26.291,38.277],[26.333,38.242],[26.428,38.214],[26.525,38.162],[26.582,38.149],[26.621,38.176],[26.683,38.198],[26.807,38.138],[26.879,38.055],[26.944,38.063],[27.159,37.987],[27.232,37.979],[27.255,37.882],[27.224,37.725],[27.078,37.688],[27.068,37.658],[27.148,37.604],[27.204,37.491],[27.219,37.389],[27.29,37.349],[27.376,37.341],[27.401,37.307],[27.52,37.249],[27.535,37.164],[27.368,37.122],[27.3,37.127],[27.25,37.079],[27.263,36.977],[27.311,36.982],[27.349,37.02],[27.668,37.007],[28.134,37.029],[28.242,37.029],[28.224,36.996],[28.083,36.92],[28.005,36.832],[27.934,36.809],[27.631,36.787],[27.555,36.759],[27.467,36.746],[27.454,36.712],[27.54,36.684],[27.656,36.675],[27.804,36.736],[28.084,36.751],[28.014,36.67],[28.019,36.634],[28.112,36.646],[28.196,36.686],[28.304,36.812],[28.484,36.804],[28.718,36.701],[28.817,36.675],[28.896,36.674],[28.97,36.715],[29.038,36.693],[29.058,36.638],[29.066,36.59],[29.116,36.52],[29.143,36.397],[29.224,36.324],[29.348,36.259],[29.689,36.157],[29.789,36.168],[30.083,36.249],[30.232,36.307],[30.295,36.288],[30.387,36.243],[30.446,36.27],[30.484,36.31],[30.506,36.451],[30.558,36.526],[30.582,36.797],[30.644,36.866],[30.95,36.849],[31.241,36.822],[31.353,36.801],[31.778,36.613],[32.022,36.535],[32.131,36.449],[32.284,36.268],[32.378,36.184],[32.534,36.101],[32.795,36.036],[32.929,36.096],[33.1,36.103],[33.442,36.153],[33.523,36.144],[33.695,36.182],[33.955,36.295],[34.023,36.341],[34.3,36.604],[34.601,36.784],[34.704,36.817],[34.811,36.799],[34.943,36.726],[35.176,36.635],[35.393,36.575],[35.537,36.597],[35.626,36.653],[35.661,36.724],[35.734,36.764],[35.802,36.778],[35.905,36.848],[36.049,36.911],[36.135,36.852],[36.18,36.807],[36.188,36.743],[36.188,36.659],[36.032,36.523],[35.883,36.406],[35.811,36.31],[35.887,36.159],[35.957,35.998],[35.893,35.917],[35.84,35.849],[35.764,35.572],[35.902,35.421],[35.916,35.351],[35.918,35.3],[35.943,35.224],[35.89,35.06],[35.888,34.949],[35.899,34.852],[35.976,34.629],[35.978,34.547],[35.921,34.493],[35.804,34.437],[35.648,34.248],[35.612,34.032],[35.511,33.88],[35.336,33.503],[35.251,33.393],[35.204,33.259],[35.155,33.16],[35.109,33.084],[35.077,32.967],[35.006,32.827],[34.922,32.614],[34.804,32.196],[34.678,31.896],[34.484,31.592],[34.477,31.585],[34.387,31.484],[34.198,31.323],[34.176,31.304],[33.903,31.181],[33.667,31.13],[33.378,31.131],[33.194,31.085],[33.157,31.126],[33.13,31.168],[32.902,31.111],[32.854,31.118],[32.685,31.074],[32.603,31.069],[32.533,31.101],[32.324,31.256],[32.251,31.295],[32.216,31.294],[32.243,31.247],[32.282,31.201],[32.207,31.119],[32.102,31.093],[32.066,31.153],[32.008,31.221],[31.902,31.24],[31.771,31.293],[31.876,31.414],[31.892,31.482],[32.076,31.344],[32.136,31.341],[31.964,31.502],[31.889,31.541],[31.839,31.526],[31.607,31.456],[31.524,31.458],[31.194,31.588],[31.083,31.603],[31.052,31.592],[31.031,31.508],[31.002,31.463],[30.841,31.44],[30.7,31.404],[30.563,31.417],[30.884,31.522],[30.924,31.567],[30.571,31.473],[30.395,31.458],[30.344,31.403],[30.312,31.357],[30.262,31.317],[30.223,31.258],[30.128,31.256],[30.049,31.265],[29.93,31.227],[29.592,31.012],[29.429,30.927],[29.279,30.867],[29.16,30.835],[29.072,30.83],[28.973,30.857],[28.807,30.943],[28.515,31.05],[27.968,31.097],[27.83,31.195],[27.62,31.192],[27.54,31.213],[27.248,31.378],[26.769,31.47],[26.457,31.512],[25.893,31.621],[25.382,31.513],[25.225,31.534],[25.15,31.655],[25.115,31.712],[25.025,31.883],[24.951,31.954],[24.879,31.984],[24.684,32.016],[24.48,31.997],[24.13,32.009],[24.039,32.037],[23.898,32.127],[23.798,32.159],[23.286,32.214],[23.106,32.331],[23.11,32.397],[23.13,32.448],[23.091,32.619],[22.917,32.687],[22.754,32.741],[22.523,32.794],[22.341,32.88],[22.187,32.918],[21.839,32.909],[21.721,32.942],[21.636,32.937],[21.425,32.799],[21.319,32.778],[21.062,32.776],[20.621,32.58],[20.371,32.431],[20.121,32.219],[20.031,32.108],[19.973,31.999],[19.926,31.818],[19.961,31.556],[20.02,31.411],[20.104,31.301],[20.141,31.196],[20.151,31.079],[20.112,30.964],[20.013,30.801],[19.713,30.488],[19.59,30.414],[19.292,30.288],[19.124,30.266],[18.936,30.29],[18.67,30.416],[18.19,30.777],[17.949,30.852],[17.83,30.928],[17.349,31.081],[16.782,31.215],[16.451,31.227],[16.123,31.264],[15.832,31.361],[15.706,31.426],[15.596,31.531],[15.496,31.657],[15.414,31.834],[15.363,31.971],[15.359,32.16],[15.267,32.312],[15.177,32.391],[14.513,32.511],[14.424,32.55],[14.237,32.681],[14.156,32.71],[13.835,32.792],[13.648,32.799],[13.536,32.824],[13.283,32.915],[13.138,32.897],[12.754,32.801],[12.427,32.829],[12.28,32.859],[11.813,33.094],[11.657,33.119],[11.505,33.182],[11.401,33.225],[11.338,33.209],[11.234,33.234],[11.203,33.249],[11.232,33.272],[11.27,33.286],[11.257,33.309],[11.15,33.369],[11.085,33.563],[10.958,33.626],[10.898,33.534],[10.828,33.519],[10.723,33.514],[10.704,33.61],[10.713,33.689],[10.454,33.663],[10.305,33.728],[10.159,33.85],[10.049,34.056],[10.04,34.14],[10.065,34.212],[10.118,34.28],[10.2,34.346],[10.535,34.545],[10.691,34.678],[10.866,34.884],[10.956,35.034],[11.12,35.24],[11.043,35.335],[11.032,35.454],[11.001,35.552],[11.004,35.634],[10.784,35.772],[10.689,35.8],[10.591,35.887],[10.506,36.032],[10.477,36.175],[10.488,36.255],[10.526,36.323],[10.642,36.42],[10.798,36.493],[10.967,36.743],[11.057,36.841],[11.127,36.874],[11.077,36.967],[11.054,37.073],[10.951,37.059],[10.766,36.93],[10.571,36.879],[10.518,36.791],[10.412,36.732],[10.293,36.781],[10.334,36.865],[10.189,37.034],[10.196,37.206],[10.087,37.251],[9.988,37.258],[9.876,37.254],[9.879,37.213],[9.896,37.182],[9.83,37.135],[9.784,37.211],[9.816,37.255],[9.838,37.309],[9.759,37.33],[9.688,37.34],[9.142,37.195],[9.059,37.156],[8.824,36.998],[8.577,36.937],[8.127,36.91],[7.91,36.856],[7.792,36.88],[7.608,37.0],[7.432,37.059],[7.204,37.092],[7.238,36.969],[7.143,36.943],[6.928,36.919],[6.576,37.003],[6.487,37.086],[6.328,37.046],[6.249,36.938],[6.065,36.864],[5.725,36.8],[5.425,36.675],[5.295,36.648],[5.196,36.677],[4.995,36.808],[4.878,36.862],[4.758,36.896],[3.779,36.896],[3.521,36.795],[2.973,36.784],[2.846,36.739],[2.593,36.601],[2.343,36.61],[1.975,36.568],[1.257,36.52],[0.972,36.444],[0.791,36.357],[0.515,36.262],[0.312,36.162],[0.152,36.063],[0.048,35.901],[-0.048,35.833],[-0.189,35.819],[-0.351,35.863],[-0.426,35.862],[-0.917,35.668],[-1.088,35.579],[-1.205,35.496],[-1.336,35.364],[-1.484,35.303],[-1.674,35.183],[-1.913,35.094],[-2.018,35.085],[-2.22,35.104],[-2.424,35.123],[-2.637,35.113],[-2.731,35.135],[-2.84,35.128],[-2.87,35.173],[-2.926,35.287],[-2.954,35.315],[-2.958,35.363],[-2.972,35.407],[-3.063,35.317],[-3.206,35.239],[-3.395,35.212],[-3.591,35.228],[-3.693,35.28],[-3.788,35.245],[-3.982,35.243],[-4.33,35.161],[-4.628,35.206],[-4.837,35.281],[-5.105,35.468],[-5.253,35.615],[-5.338,35.745],[-5.338,35.857],[-5.278,35.903],[-5.397,35.93],[-5.522,35.862],[-5.623,35.829],[-5.748,35.816],[-5.925,35.786],[-5.958,35.681],[-6.353,34.776],[-6.756,34.133],[-6.901,33.969],[-7.145,33.83],[-7.562,33.64],[-8.301,33.374],[-8.513,33.252],[-8.596,33.187],[-8.836,32.92],[-9.246,32.572],[-9.249,32.486],[-9.287,32.241],[-9.347,32.086],[-9.675,31.711],[-9.809,31.425],[-9.833,31.07],[-9.832,30.847],[-9.875,30.718],[-9.854,30.645],[-9.773,30.603],[-9.653,30.448],[-9.624,30.353],[-9.667,30.109],[-9.743,29.958],[-9.853,29.809],[-10.01,29.641],[-10.201,29.38],[-10.486,29.065],[-10.674,28.939],[-11.081,28.714],[-11.299,28.526],[-11.43,28.382],[-11.553,28.31],[-11.986,28.129],[-12.469,28.009],[-12.794,27.978],[-12.949,27.914],[-13.041,27.77],[-13.176,27.656],[-13.256,27.435],[-13.41,27.147],[-13.496,26.873],[-13.576,26.735],[-13.696,26.643],[-13.952,26.489],[-14.168,26.415],[-14.312,26.297],[-14.414,26.254],[-14.471,26.163],[-14.523,25.925],[-14.602,25.809],[-14.707,25.548],[-14.795,25.404],[-14.843,25.22],[-14.856,24.872],[-14.904,24.72],[-15.039,24.549],[-15.189,24.479],[-15.586,24.073],[-15.778,23.953],[-15.899,23.844],[-15.953,23.741],[-15.981,23.67],[-15.913,23.728],[-15.855,23.8],[-15.802,23.842],[-15.789,23.793],[-15.806,23.75],[-15.943,23.553],[-15.997,23.425],[-16.114,23.228],[-16.21,23.098],[-16.17,23.032],[-16.202,22.945],[-16.304,22.835],[-16.359,22.595],[-16.514,22.333],[-16.684,22.274],[-16.793,22.16],[-16.931,21.9],[-17.01,21.377],[-17.099,20.857],[-17.048,20.806],[-16.998,21.04],[-16.971,21.076],[-16.928,21.115],[-16.876,21.086],[-16.728,20.806],[-16.623,20.634],[-16.563,20.604],[-16.535,20.654],[-16.53,20.71],[-16.479,20.69],[-16.43,20.652],[-16.334,20.416],[-16.21,20.228],[-16.241,20.141],[-16.233,20.001],[-16.283,19.787],[-16.445,19.473],[-16.305,19.513],[-16.371,19.41],[-16.475,19.391],[-16.514,19.362],[-16.476,19.285],[-16.306,19.154],[-16.213,19.003],[-16.15,18.718],[-16.085,18.521],[-16.047,18.223],[-16.03,17.888],[-16.079,17.546],[-16.207,17.193],[-16.347,16.926],[-16.464,16.602],[-16.481,16.454],[-16.536,16.287],[-16.535,15.838],[-16.571,15.734],[-16.843,15.294],[-17.147,14.922],[-17.412,14.792],[-17.536,14.755],[-17.445,14.652],[-17.418,14.723],[-17.346,14.729],[-17.261,14.701],[-17.168,14.641],[-17.079,14.483],[-16.974,14.403],[-16.881,14.208],[-16.798,14.093],[-16.792,14.004],[-16.742,14.006],[-16.667,14.036],[-16.618,14.041],[-16.64,14.007],[-16.734,13.961],[-16.767,13.905],[-16.745,13.84],[-16.648,13.771],[-16.588,13.69],[-16.562,13.587],[-16.53,13.458],[-16.441,13.353],[-16.352,13.343],[-16.135,13.448],[-15.85,13.46],[-15.57,13.5],[-15.438,13.483],[-15.427,13.468],[-15.471,13.459],[-15.618,13.46],[-15.804,13.425],[-15.986,13.409],[-16.158,13.384],[-16.188,13.326],[-16.185,13.283],[-16.272,13.294],[-16.413,13.27],[-16.556,13.303],[-16.598,13.357],[-16.615,13.435],[-16.669,13.475],[-16.75,13.425],[-16.825,13.341],[-16.769,13.148],[-16.763,13.064],[-16.757,12.98],[-16.769,12.883],[-16.759,12.702],[-16.778,12.67],[-16.768,12.628],[-16.744,12.585],[-16.701,12.603],[-16.673,12.622],[-16.638,12.685],[-16.598,12.715],[-16.549,12.664],[-16.455,12.625],[-16.443,12.609],[-16.45,12.581],[-16.488,12.582],[-16.553,12.605],[-16.678,12.56],[-16.76,12.526],[-16.785,12.473],[-16.746,12.4],[-16.712,12.355],[-16.437,12.204],[-16.312,12.243],[-16.245,12.237],[-16.255,12.206],[-16.319,12.144],[-16.328,12.052],[-16.274,11.978],[-16.138,11.917],[-15.959,11.96],[-15.92,11.938],[-15.903,11.92],[-15.942,11.787],[-15.819,11.763],[-15.651,11.818],[-15.513,11.918],[-15.435,11.944],[-15.188,11.927],[-15.112,11.97],[-15.078,11.969],[-15.072,11.947],[-15.102,11.914],[-15.133,11.907],[-15.211,11.871],[-15.416,11.872],[-15.467,11.843],[-15.5,11.778],[-15.502,11.724],[-15.413,11.615],[-15.36,11.623],[-15.317,11.669],[-15.23,11.687],[-15.122,11.662],[-15.073,11.598],[-15.164,11.581],[-15.253,11.573],[-15.429,11.499],[-15.479,11.41],[-15.449,11.39],[-15.399,11.401],[-15.355,11.396],[-15.348,11.378],[-15.395,11.334],[-15.401,11.266],[-15.393,11.217],[-15.317,11.152],[-15.263,11.161],[-15.217,11.156],[-15.222,11.031],[-15.181,11.034],[-15.097,11.14],[-15.055,11.142],[-15.094,11.011],[-15.043,10.94],[-15.051,10.835],[-15.012,10.804],[-14.975,10.803],[-14.925,10.945],[-14.887,10.968],[-14.837,10.963],[-14.776,10.932],[-14.757,10.862],[-14.693,10.741],[-14.677,10.689],[-14.594,10.767],[-14.587,10.735],[-14.614,10.618],[-14.61,10.55],[-14.427,10.248],[-14.17,10.129],[-14.086,10.127],[-14.045,10.141],[-14.03,10.115],[-14.022,10.048],[-13.955,9.969],[-13.82,9.887],[-13.754,9.87],[-13.713,9.923],[-13.69,9.928],[-13.7,9.851],[-13.659,9.776],[-13.657,9.639],[-13.691,9.536],[-13.568,9.543],[-13.436,9.42],[-13.406,9.361],[-13.396,9.314],[-13.296,9.219],[-13.269,9.171],[-13.303,9.078],[-13.293,9.049],[-13.272,8.987],[-13.154,8.898],[-13.059,8.881],[-13.071,8.856],[-13.207,8.843],[-13.226,8.766],[-13.228,8.696],[-13.182,8.577],[-13.122,8.589],[-13.088,8.626],[-12.953,8.615],[-12.904,8.656],[-12.894,8.63],[-12.913,8.582],[-12.994,8.526],[-13.085,8.425],[-13.158,8.442],[-13.203,8.484],[-13.261,8.488],[-13.273,8.43],[-13.202,8.336],[-13.149,8.215],[-13.021,8.201],[-12.957,8.145],[-12.925,8.055],[-12.881,7.857],[-12.851,7.819],[-12.782,7.791],[-12.698,7.716],[-12.57,7.701],[-12.51,7.753],[-12.48,7.753],[-12.51,7.666],[-12.433,7.545],[-12.481,7.442],[-12.486,7.386],[-12.347,7.342],[-11.929,7.184],[-11.733,7.089],[-11.548,6.947],[-11.508,6.907],[-11.292,6.688],[-11.005,6.557],[-10.849,6.465],[-10.786,6.31],[-10.708,6.258],[-10.597,6.211],[-10.418,6.167],[-10.276,6.078],[-9.654,5.519],[-9.375,5.241],[-9.132,5.055],[-9.03,5.0]],[[-5.942,5.0],[-5.914,5.011],[-5.565,5.089],[-5.062,5.131],[-5.105,5.162],[-5.266,5.16],[-5.368,5.151],[-5.335,5.192],[-5.282,5.21],[-5.024,5.204],[-4.97,5.148],[-4.9,5.138],[-4.662,5.173],[-4.037,5.23],[-4.062,5.257],[-4.115,5.262],[-4.609,5.236],[-4.553,5.28],[-4.357,5.301],[-4.12,5.31],[-3.984,5.293],[-3.871,5.221],[-3.348,5.131],[-3.312,5.161],[-3.238,5.335],[-3.2,5.354],[-3.151,5.348],[-3.169,5.203],[-3.064,5.158],[-3.026,5.151],[-3.019,5.131],[-3.087,5.128],[-3.215,5.147],[-3.246,5.114],[-3.114,5.089],[-3.082,5.082],[-2.965,5.046],[-2.723,5.014],[-2.67,5.0]],[[-1.593,5.0],[-1.502,5.038],[-1.064,5.183],[-0.798,5.227],[-0.669,5.319],[-0.485,5.394],[-0.349,5.501],[-0.127,5.568],[0.26,5.757],[0.672,5.76],[0.749,5.76],[0.95,5.81],[1.008,5.906],[1.05,5.994],[1.106,6.051],[1.187,6.089],[1.311,6.147],[1.623,6.217],[1.818,6.261],[2.287,6.328],[2.706,6.369],[2.772,6.376],[3.336,6.397],[3.43,6.525],[3.503,6.531],[3.717,6.598],[3.752,6.584],[3.546,6.477],[3.49,6.457],[3.451,6.427],[3.487,6.409],[4.126,6.411],[4.431,6.349],[4.634,6.217],[4.861,6.026],[5.042,5.798],[5.093,5.767],[5.106,5.728],[5.112,5.642],[5.173,5.603],[5.276,5.642],[5.305,5.694],[5.327,5.708],[5.325,5.648],[5.35,5.623],[5.418,5.625],[5.457,5.612],[5.394,5.575],[5.289,5.577],[5.216,5.572],[5.199,5.534],[5.232,5.484],[5.386,5.402],[5.55,5.474],[5.532,5.426],[5.501,5.379],[5.439,5.365],[5.368,5.338],[5.364,5.259],[5.37,5.195],[5.388,5.174],[5.476,5.154],[5.452,5.127],[5.403,5.142],[5.383,5.129],[5.429,5.0]],[[48.27,5.0],[48.649,5.494],[49.049,6.174],[49.093,6.408],[49.235,6.777],[49.349,6.991],[49.57,7.297],[49.671,7.47],[49.761,7.66],[49.852,7.963],[50.0,8.103]],[[50.0,11.511],[49.642,11.451],[49.388,11.343],[49.062,11.271],[48.939,11.258],[48.903,11.255],[48.674,11.323],[48.573,11.321],[48.439,11.29],[48.019,11.139],[47.712,11.112],[47.474,11.175],[47.405,11.174],[47.23,11.1],[46.973,10.925],[46.565,10.746],[46.46,10.734],[46.254,10.781],[46.025,10.794],[45.817,10.836],[45.696,10.804],[45.338,10.65],[44.943,10.437],[44.387,10.43],[44.279,10.472],[44.158,10.551],[43.853,10.784],[43.631,11.035],[43.441,11.346],[43.246,11.5],[43.162,11.566],[43.043,11.588],[42.912,11.587],[42.79,11.562],[42.653,11.51],[42.584,11.497],[42.54,11.504],[42.522,11.572],[42.64,11.56],[42.799,11.739],[43.048,11.829],[43.272,11.97],[43.337,12.027],[43.38,12.091],[43.41,12.19],[43.354,12.367],[43.299,12.464],[43.131,12.66],[43.117,12.709],[43.083,12.825],[42.999,12.9],[42.97,12.808],[42.796,12.864],[42.734,13.019],[42.523,13.221],[42.399,13.213],[42.346,13.398],[42.245,13.588],[41.658,13.983],[41.48,14.244],[41.176,14.62],[40.799,14.743],[40.634,14.883],[40.546,14.934],[40.437,14.964],[40.305,14.974],[40.204,15.014],[40.084,15.152],[40.058,15.217],[40.041,15.335],[39.978,15.393],[39.864,15.47],[39.813,15.414],[39.79,15.319],[39.816,15.245],[39.819,15.201],[39.786,15.125],[39.721,15.214],[39.631,15.453],[39.579,15.523],[39.507,15.532],[39.422,15.787],[39.299,15.921],[39.223,16.194],[39.143,16.729],[39.034,17.086],[38.912,17.427],[38.609,18.005],[38.574,18.073],[38.333,18.219],[38.283,18.287],[38.252,18.264],[38.202,18.249],[38.128,18.333],[38.074,18.41],[37.922,18.556],[37.73,18.694],[37.599,18.717],[37.532,18.753],[37.471,18.82],[37.362,19.092],[37.248,19.582],[37.263,19.792],[37.193,20.121],[37.188,20.395],[37.228,20.557],[37.173,20.732],[37.157,20.895],[37.141,20.982],[37.151,21.104],[37.217,21.078],[37.257,21.039],[37.263,21.073],[37.259,21.109],[37.212,21.186],[37.081,21.326],[36.927,21.587],[36.883,21.769],[36.871,21.997],[36.87,22.016],[36.83,22.098],[36.415,22.394],[36.23,22.629],[35.913,22.74],[35.846,22.786],[35.797,22.849],[35.698,22.946],[35.564,23.271],[35.523,23.443],[35.504,23.779],[35.515,23.843],[35.541,23.921],[35.594,23.943],[35.632,23.95],[35.784,23.938],[35.625,24.066],[35.478,24.155],[35.397,24.27],[35.194,24.475],[34.853,25.14],[34.679,25.443],[34.565,25.691],[34.329,26.024],[34.05,26.551],[33.959,26.649],[33.893,27.049],[33.849,27.185],[33.802,27.268],[33.697,27.341],[33.657,27.431],[33.55,27.607],[33.559,27.701],[33.547,27.898],[33.495,27.974],[33.372,28.051],[33.202,28.208],[33.023,28.442],[32.898,28.565],[32.857,28.631],[32.829,28.703],[32.784,28.787],[32.659,28.928],[32.632,28.992],[32.638,29.182],[32.599,29.322],[32.565,29.386],[32.397,29.534],[32.36,29.631],[32.409,29.749],[32.489,29.852],[32.473,29.925],[32.566,29.974],[32.647,29.798],[32.721,29.522],[32.767,29.45],[32.812,29.4],[32.871,29.286],[33.076,29.073],[33.13,28.978],[33.204,28.778],[33.202,28.696],[33.248,28.568],[33.416,28.39],[33.594,28.256],[33.76,28.048],[34.045,27.829],[34.22,27.764],[34.319,27.889],[34.4,28.016],[34.427,28.106],[34.446,28.357],[34.617,28.758],[34.736,29.271],[34.849,29.432],[34.904,29.477],[34.973,29.555],[34.982,29.484],[34.951,29.354],[34.799,28.721],[34.78,28.507],[34.683,28.264],[34.616,28.148],[34.625,28.065],[34.722,28.131],[34.828,28.109],[35.078,28.087],[35.18,28.035],[35.424,27.734],[35.581,27.432],[35.763,27.259],[35.852,27.07],[36.032,26.881],[36.094,26.766],[36.25,26.595],[36.519,26.105],[36.675,26.039],[36.703,25.903],[36.763,25.751],[36.86,25.692],[36.921,25.641],[37.149,25.291],[37.218,25.151],[37.243,25.073],[37.266,24.96],[37.22,24.873],[37.181,24.82],[37.338,24.616],[37.431,24.459],[37.543,24.292],[37.638,24.278],[37.713,24.274],[37.821,24.188],[37.92,24.185],[37.978,24.125],[38.099,24.058],[38.289,23.911],[38.464,23.712],[38.542,23.558],[38.706,23.306],[38.757,23.194],[38.797,23.049],[38.836,22.989],[38.941,22.882],[38.883,22.882],[38.939,22.805],[39.007,22.77],[39.001,22.699],[39.062,22.592],[39.096,22.393],[39.07,22.294],[39.034,22.203],[39.021,22.033],[38.988,21.882],[39.03,21.776],[39.091,21.664],[39.147,21.519],[39.151,21.433],[39.094,21.31],[39.276,20.974],[39.491,20.737],[39.614,20.518],[39.728,20.39],[39.884,20.293],[40.081,20.266],[40.482,19.993],[40.616,19.822],[40.759,19.755],[40.777,19.717],[40.792,19.646],[40.848,19.555],[40.913,19.49],[41.116,19.082],[41.144,18.989],[41.191,18.871],[41.221,18.765],[41.229,18.678],[41.432,18.452],[41.508,18.256],[41.658,18.008],[41.75,17.886],[42.052,17.669],[42.294,17.435],[42.332,17.257],[42.383,17.122],[42.475,17.05],[42.544,16.96],[42.553,16.868],[42.647,16.801],[42.699,16.737],[42.726,16.653],[42.731,16.57],[42.79,16.452],[42.799,16.372],[42.84,16.032],[42.717,15.655],[42.8,15.372],[42.799,15.326],[42.788,15.266],[42.736,15.294],[42.698,15.326],[42.658,15.233],[42.856,15.133],[42.897,15.006],[42.936,14.939],[42.937,14.898],[42.913,14.863],[42.922,14.817],[42.947,14.773],[43.021,14.555],[43.019,14.521],[43.006,14.483],[43.045,14.342],[43.093,14.204],[43.089,14.011],[43.234,13.859],[43.282,13.693],[43.283,13.64],[43.232,13.267],[43.475,12.839],[43.488,12.699],[43.634,12.744],[43.835,12.674],[43.93,12.617],[44.006,12.608],[44.112,12.639],[44.26,12.645],[44.358,12.669],[44.618,12.817],[44.755,12.764],[44.89,12.784],[45.039,12.816],[45.11,12.939],[45.164,12.998],[45.394,13.067],[45.534,13.233],[45.657,13.339],[45.92,13.394],[46.203,13.424],[46.502,13.416],[46.663,13.433],[46.789,13.466],[46.976,13.547],[47.243,13.609],[47.408,13.662],[47.633,13.858],[47.855,13.957],[47.916,14.013],[47.99,14.048],[48.278,13.998],[48.449,14.006],[48.594,14.046],[48.668,14.05],[48.78,14.124],[48.929,14.267],[49.005,14.355],[49.048,14.456],[49.103,14.5],[49.35,14.638],[49.549,14.722],[49.906,14.828],[50.0,14.836]],[[50.0,26.815],[49.986,26.829],[49.717,26.956],[49.538,27.152],[49.405,27.181],[49.282,27.31],[49.175,27.438],[49.237,27.493],[49.158,27.528],[49.087,27.549],[48.906,27.629],[48.797,27.724],[48.807,27.765],[48.833,27.801],[48.809,27.896],[48.774,27.959],[48.626,28.133],[48.523,28.355],[48.499,28.449],[48.442,28.543],[48.39,28.632],[48.371,28.692],[48.339,28.763],[48.253,28.901],[48.184,28.979],[48.1,29.211],[48.086,29.275],[48.051,29.355],[47.998,29.386],[47.935,29.367],[47.845,29.366],[47.723,29.393],[47.725,29.417],[47.817,29.487],[47.97,29.617],[48.048,29.598],[48.089,29.579],[48.143,29.572],[48.136,29.618],[48.077,29.716],[48.006,29.836],[47.974,29.946],[47.979,29.983],[47.983,30.011],[48.073,30.043],[48.142,30.041],[48.355,29.957],[48.454,29.938],[48.546,29.962],[48.596,29.975],[48.671,30.028],[48.832,30.035],[48.87,30.062],[48.919,30.121],[48.909,30.241],[48.891,30.328],[48.917,30.397],[49.037,30.45],[49.002,30.507],[49.13,30.509],[49.225,30.472],[49.247,30.413],[49.19,30.375],[49.096,30.407],[49.049,30.397],[49.002,30.374],[49.028,30.333],[49.054,30.307],[49.43,30.13],[49.555,30.029],[49.983,30.209],[50.0,30.207]]]}}]}